{"type":"FeatureCollection","features":[{"type":"Feature","geometry":{"type":"Polygon","coordinates":[[[28.5009507,54.279672],[28.4952129,54.2798823],[28.4960864,54.2774715],[28.4951208,54.2774758],[28.4955766,54.2756502],[28.4912305,54.2757815],[28.4911887,54.2752413],[28.4899851,54.2753473],[28.4897056,54.2760327],[28.4872379,54.2773633],[28.4862867,54.2771742],[28.4856547,54.275644],[28.4839327,54.2749899],[28.4829201,54.2748185],[28.4833625,54.2738737],[28.4915287,54.2729382],[28.4973854,54.272355],[28.4988849,54.2719058],[28.4991784,54.2713764],[28.498179,54.2706439],[28.4997621,54.2666071],[28.5012495,54.2646691],[28.501741,54.2637995],[28.5017228,54.2621626],[28.5027891,54.2621348],[28.5026765,54.2641244],[28.5025504,54.2646648],[28.5047525,54.264704],[28.5092398,54.2645645],[28.5091513,54.2628273],[28.5088885,54.2612951],[28.5061741,54.2614737],[28.50328,54.261527],[28.5032961,54.2619782],[28.501383,54.2619777],[28.5013349,54.2638948],[28.5010015,54.264506],[28.4995345,54.2662195],[28.4990836,54.2669589],[28.4982277,54.269031],[28.49551,54.2683132],[28.4960894,54.2670835],[28.496973,54.2660597],[28.4958773,54.2658428],[28.4949108,54.2646081],[28.4952859,54.2643278],[28.4936543,54.2641463],[28.4924704,54.2633651],[28.4914255,54.2634127],[28.4914706,54.2625509],[28.4898271,54.2627231],[28.4892435,54.2630969],[28.4877856,54.2661248],[28.4884381,54.2662209],[28.4853382,54.2703198],[28.4846753,54.2703909],[28.4837686,54.2710008],[28.4819481,54.2731722],[28.4800699,54.2732524],[28.4787141,54.2737259],[28.4777584,54.273735],[28.4787082,54.2722812],[28.4802381,54.2715883],[28.4780273,54.2688969],[28.4798016,54.2680274],[28.481154,54.2677429],[28.4829307,54.2682149],[28.4837297,54.2682364],[28.4846342,54.2679633],[28.485558,54.2671186],[28.4857763,54.2662281],[28.4856731,54.2647336],[28.4860145,54.2620017],[28.486797,54.2608691],[28.4878122,54.2600635],[28.4883876,54.2589464],[28.4882721,54.2578973],[28.4879964,54.2573066],[28.4868551,54.2558851],[28.4868379,54.255408],[28.4886497,54.2517801],[28.4806523,54.2442017],[28.4750933,54.2484933],[28.4735564,54.2514113],[28.472711,54.2513105],[28.470964,54.2507216],[28.4704638,54.2503285],[28.4688077,54.2496874],[28.4491535,54.243821],[28.4545109,54.2382996],[28.461902,54.2324095],[28.4614629,54.23149],[28.4676575,54.2163579],[28.4672873,54.2065179],[28.4689665,54.1975584],[28.4676775,54.1952458],[28.4634517,54.193122],[28.4700019,54.1914837],[28.4730773,54.1900855],[28.4735561,54.1887471],[28.4658301,54.1853974],[28.4516805,54.1790797],[28.4626891,54.1746495],[28.4698777,54.1708969],[28.4727992,54.1671465],[28.4740071,54.1633951],[28.4749585,54.162919],[28.4758521,54.1639998],[28.4759057,54.1649149],[28.4767944,54.1651644],[28.4789859,54.1652586],[28.48558,54.16672],[28.4872353,54.1672376],[28.4873927,54.1675562],[28.4888564,54.1683068],[28.48918,54.16869],[28.4903097,54.1688923],[28.4911545,54.1700553],[28.491865,54.1693965],[28.4925421,54.1694137],[28.4931487,54.1698373],[28.4916429,54.1701576],[28.4904118,54.1705482],[28.4904311,54.1707439],[28.4918378,54.1710071],[28.4921348,54.1718008],[28.491661,54.1723371],[28.4900495,54.1729049],[28.4897956,54.1732304],[28.4912154,54.1734018],[28.4916274,54.1730255],[28.4922944,54.1732608],[28.4922608,54.1736296],[28.4903181,54.173914],[28.4900084,54.1745418],[28.4905686,54.1748973],[28.4916108,54.1751733],[28.4933696,54.1762948],[28.4945419,54.1758586],[28.4952679,54.1760606],[28.4959106,54.1769244],[28.4957077,54.1774705],[28.496708,54.1774955],[28.4976735,54.1780208],[28.4982671,54.1781294],[28.4991693,54.1773903],[28.4995889,54.1777408],[28.4988715,54.1788333],[28.4993652,54.1793325],[28.5005256,54.1793238],[28.5005951,54.1785808],[28.5010285,54.1784294],[28.5019836,54.1790538],[28.5015442,54.1792391],[28.5012984,54.1801552],[28.5026084,54.180473],[28.5032183,54.1810564],[28.5040366,54.181126],[28.5035589,54.1816264],[28.5053606,54.1823884],[28.505792,54.1821621],[28.5052416,54.1817355],[28.5050366,54.1803874],[28.50549,54.18011],[28.5060301,54.181422],[28.5072893,54.1813386],[28.508681,54.1801784],[28.5099654,54.1809852],[28.5101032,54.1801283],[28.5103883,54.179863],[28.5126371,54.1798206],[28.5137764,54.1803802],[28.5146587,54.1814825],[28.5148716,54.1823768],[28.51553,54.18268],[28.5153437,54.1833434],[28.5165254,54.1836507],[28.5173706,54.1844441],[28.5186899,54.1843832],[28.5198984,54.18533],[28.5210627,54.1851434],[28.5213136,54.1857625],[28.5227892,54.1855048],[28.5238363,54.1854561],[28.5251112,54.1851427],[28.5252016,54.1855033],[28.5237317,54.1865993],[28.5246018,54.1868296],[28.5257443,54.1868915],[28.5265866,54.1866011],[28.5266486,54.1857611],[28.5274996,54.1854792],[28.5273936,54.1866171],[28.5276206,54.1869889],[28.5289293,54.1870636],[28.5297991,54.1862546],[28.5314749,54.1864612],[28.5329925,54.1873564],[28.5341652,54.1875335],[28.5344029,54.1869396],[28.5353116,54.1867545],[28.5355347,54.18729],[28.5362988,54.1880293],[28.5371538,54.1883348],[28.5378181,54.1881384],[28.5372692,54.1900794],[28.5421144,54.1927093],[28.5368117,54.1950921],[28.5369316,54.1952584],[28.5351045,54.1957554],[28.535671,54.1965747],[28.5423112,54.1959484],[28.5473654,54.1958897],[28.5489098,54.1949114],[28.5477379,54.1940497],[28.5514669,54.1919727],[28.5527293,54.1925473],[28.5609133,54.1879058],[28.5619037,54.1883333],[28.5637879,54.1886859],[28.5636834,54.1893],[28.5653275,54.1889151],[28.5658747,54.1894361],[28.5666472,54.1895962],[28.5670763,54.1901109],[28.5680473,54.1902804],[28.5681172,54.1912589],[28.5693642,54.1909363],[28.5707156,54.1918939],[28.5713882,54.1912306],[28.5709851,54.1908264],[28.571047,54.1896068],[28.5717595,54.1893702],[28.5718889,54.1899547],[28.5729019,54.1898964],[28.5741924,54.1902989],[28.5752034,54.1900622],[28.5758579,54.1896652],[28.5762133,54.1901013],[28.5773586,54.1903829],[28.5776742,54.1910029],[28.5765299,54.19152],[28.5774822,54.1926733],[28.5781604,54.1926684],[28.5787694,54.193234],[28.5783446,54.1936543],[28.5787674,54.1941904],[28.577836,54.1949317],[28.5755669,54.1951954],[28.5756869,54.1956885],[28.5780989,54.1951985],[28.5788982,54.1958826],[28.580979,54.1963118],[28.57898,54.1965102],[28.5751593,54.1971768],[28.5741653,54.1977663],[28.5737328,54.1986279],[28.5736505,54.199248],[28.5731212,54.1997525],[28.5719972,54.2001743],[28.57012,54.20036],[28.5697056,54.2005432],[28.5687013,54.201463],[28.5675257,54.202258],[28.5670841,54.2034591],[28.5681222,54.2047153],[28.5680209,54.2055651],[28.5672081,54.2072484],[28.5664487,54.208177],[28.5654486,54.2090882],[28.5647823,54.2095039],[28.5625724,54.2100573],[28.5600823,54.209908],[28.5578799,54.2102162],[28.5544753,54.2102197],[28.5530852,54.2100049],[28.5515902,54.2101953],[28.5507364,54.210708],[28.5512852,54.2114107],[28.5513169,54.2125072],[28.5502837,54.2131224],[28.5495768,54.2138878],[28.5468854,54.2160504],[28.54609,54.21658],[28.5446948,54.2170855],[28.5426755,54.2173469],[28.5421267,54.2177056],[28.5419958,54.2184045],[28.5429663,54.2193255],[28.5453168,54.2202432],[28.5458265,54.2210068],[28.5455869,54.221933],[28.5433652,54.2240302],[28.54257,54.22431],[28.5407207,54.2241881],[28.5390185,54.2234936],[28.5381912,54.2237474],[28.5382676,54.2253536],[28.53725,54.22637],[28.5364964,54.2266944],[28.5340232,54.2274695],[28.5374899,54.232444],[28.5477794,54.2306593],[28.5488483,54.2320824],[28.5570446,54.229774],[28.5584573,54.2293318],[28.5611955,54.230738],[28.5599524,54.2316371],[28.5601241,54.2322642],[28.5588312,54.2333836],[28.5623854,54.2353159],[28.5649041,54.2347652],[28.567307,54.2357132],[28.5718836,54.2363244],[28.5711533,54.2377169],[28.5622543,54.2400797],[28.5627343,54.2407424],[28.562236,54.2408587],[28.5622901,54.242325],[28.5621359,54.242554],[28.559629,54.2420024],[28.5573959,54.2420575],[28.5559452,54.2419919],[28.5550648,54.2424983],[28.5557131,54.2427878],[28.5546204,54.2431815],[28.5552864,54.2438729],[28.5515251,54.2452629],[28.5530377,54.2457848],[28.5520533,54.2468498],[28.5485127,54.2458736],[28.5480401,54.246043],[28.5466253,54.2471013],[28.5422555,54.2457424],[28.5415654,54.2463888],[28.5431368,54.2469233],[28.5426484,54.247421],[28.5432996,54.247836],[28.5419689,54.2492359],[28.5379003,54.2479203],[28.5379831,54.2476128],[28.5360313,54.2469559],[28.5373048,54.2449606],[28.5316298,54.2466022],[28.529132,54.2477278],[28.5227922,54.248032],[28.5238123,54.249295],[28.526544,54.2508751],[28.5265857,54.251399],[28.5262621,54.2520579],[28.5272707,54.2522441],[28.5282785,54.2519157],[28.5281489,54.2526289],[28.5285875,54.2530209],[28.5299617,54.2524889],[28.5309345,54.2528175],[28.5311668,54.2545922],[28.5307357,54.2548534],[28.5308397,54.2553884],[28.5319977,54.255384],[28.5336989,54.2542916],[28.5347249,54.2548988],[28.5342101,54.2556202],[28.5352192,54.2558186],[28.5352864,54.2566514],[28.5361881,54.256875],[28.5371253,54.256514],[28.5382967,54.257853],[28.5379856,54.2582791],[28.5360637,54.2580232],[28.53519,54.2582777],[28.5349357,54.2587638],[28.5355501,54.2589748],[28.5361831,54.2586928],[28.5392837,54.2591753],[28.5394018,54.2594135],[28.5382967,54.2602219],[28.5370951,54.2602156],[28.536859,54.2606041],[28.5372345,54.2610679],[28.5381572,54.261118],[28.5386722,54.2608109],[28.5388707,54.2602814],[28.5407053,54.2607639],[28.5399006,54.2613279],[28.5390531,54.2615097],[28.5405658,54.2621865],[28.5401152,54.2626376],[28.5392462,54.2630262],[28.5393052,54.2633771],[28.5403405,54.2638408],[28.5410808,54.2638345],[28.5409413,54.2643922],[28.5414349,54.2646616],[28.5418855,54.2656329],[28.5417138,54.2662093],[28.5420518,54.2665258],[28.5428457,54.2664568],[28.5439561,54.2666605],[28.5434851,54.2678194],[28.5446546,54.268659],[28.5444507,54.2688783],[28.5425732,54.2690537],[28.5417256,54.2698181],[28.5410282,54.2700624],[28.54051,54.27074],[28.5398159,54.27114],[28.5410604,54.27166],[28.5405454,54.2718543],[28.5396335,54.271729],[28.5389897,54.2719106],[28.5380241,54.2725559],[28.5374341,54.2735395],[28.5364256,54.273621],[28.5352073,54.2733456],[28.5293744,54.2736856],[28.5298634,54.2756367],[28.5285456,54.2757209],[28.5288072,54.2791387],[28.5256782,54.2791764],[28.5256064,54.2812903],[28.5261797,54.2819109],[28.5271875,54.282046],[28.5274626,54.2823251],[28.5261488,54.2830104],[28.5043752,54.2834432],[28.5021928,54.2801936],[28.5009507,54.279672]]]},"properties":{"slug":"borisov","name":"Борисов","level":"city","regionSlug":"minsk-region","osmRelationId":1749244}},{"type":"Feature","geometry":{"type":"Polygon","coordinates":[[[23.6139367,52.0956722],[23.6150128,52.0944354],[23.6170176,52.092352],[23.6187153,52.0912466],[23.6219429,52.0898019],[23.6229837,52.0893931],[23.6272004,52.0880714],[23.6318439,52.087533],[23.6331153,52.0872034],[23.634156,52.0867722],[23.6359048,52.0863364],[23.6402365,52.0855657],[23.6394936,52.084374],[23.6399126,52.0836053],[23.640877,52.0829389],[23.6409853,52.0825765],[23.6403633,52.0807677],[23.6406397,52.080268],[23.6420667,52.0795335],[23.6427854,52.0788259],[23.6431475,52.0773605],[23.6435525,52.0770221],[23.6456067,52.0765566],[23.6464848,52.0761993],[23.6477695,52.0750074],[23.6484485,52.0748175],[23.6494689,52.0749875],[23.6511565,52.0755218],[23.6531208,52.0738097],[23.6536457,52.0731207],[23.6538806,52.0721709],[23.6536998,52.0713578],[23.6531902,52.0707977],[23.6509625,52.0691686],[23.6501728,52.0681487],[23.6494395,52.0676482],[23.6481744,52.0673199],[23.6456063,52.0670918],[23.6443886,52.0665642],[23.6440035,52.0661784],[23.6438935,52.0653543],[23.6442424,52.0645187],[23.6453515,52.0634609],[23.6471916,52.0628871],[23.6488491,52.0628549],[23.6508769,52.0633768],[23.6525855,52.0635054],[23.6540687,52.0629316],[23.6552668,52.0618452],[23.6563278,52.0594527],[23.6563118,52.0589454],[23.6557156,52.0583881],[23.6549812,52.0582021],[23.6536556,52.0582366],[23.6525103,52.0587017],[23.6506087,52.0600135],[23.6490235,52.0604646],[23.6466115,52.0607519],[23.644916,52.0610975],[23.6437047,52.0611187],[23.6420126,52.0605149],[23.641489,52.0600713],[23.6411639,52.0589602],[23.6415671,52.0582283],[23.6427872,52.0576569],[23.6445026,52.0573666],[23.6468241,52.0572537],[23.6479827,52.0571057],[23.649857,52.0566047],[23.6523092,52.0556539],[23.6536019,52.0548887],[23.6545945,52.0537638],[23.6556566,52.0519132],[23.6560401,52.0504468],[23.6560482,52.0497392],[23.6556297,52.048159],[23.656944,52.0454998],[23.6577062,52.0431412],[23.6585319,52.0420321],[23.6601734,52.0415701],[23.6611551,52.0410983],[23.6618686,52.0416097],[23.6633062,52.0418803],[23.6639821,52.0421707],[23.6666858,52.0421773],[23.6699903,52.04289],[23.6702692,52.0422433],[23.6712456,52.0416823],[23.6747887,52.0423664],[23.6753331,52.042241],[23.6784296,52.0395543],[23.6823832,52.0373177],[23.6854769,52.036683],[23.685743,52.0353686],[23.6917196,52.0308698],[23.6922299,52.0308172],[23.694248,52.0309813],[23.7036599,52.0266239],[23.7024453,52.025096],[23.709989,52.023784],[23.710662,52.02613],[23.712247,52.02666],[23.7297551,52.0259385],[23.7286723,52.0344625],[23.7304648,52.0345113],[23.7379789,52.0351223],[23.7388801,52.0378679],[23.7442016,52.0387654],[23.7439569,52.040939],[23.7460283,52.0413764],[23.7476657,52.0420002],[23.7494219,52.0431463],[23.7602785,52.0532162],[23.7617436,52.0545403],[23.7638419,52.0558985],[23.7671365,52.0537191],[23.7663518,52.0550827],[23.7662557,52.0559413],[23.7664521,52.0567099],[23.7675254,52.0582523],[23.7790228,52.0738902],[23.7818968,52.0782334],[23.7835251,52.0817673],[23.784647,52.085151],[23.7887,52.085108],[23.7890604,52.080386],[23.7902713,52.0798324],[23.7932485,52.0775707],[23.7976634,52.0783719],[23.7980926,52.0774619],[23.8002705,52.0774092],[23.8009786,52.0766707],[23.8034248,52.0770399],[23.8114929,52.0770927],[23.8130164,52.0755761],[23.8187354,52.076645],[23.8191104,52.0761695],[23.8209557,52.0759124],[23.8204837,52.0749166],[23.8225973,52.0738286],[23.8239813,52.0737099],[23.8288978,52.0737362],[23.8306117,52.0736505],[23.8306546,52.0727668],[23.8317811,52.0721865],[23.8318562,52.0713622],[23.8333289,52.0712709],[23.836019,52.0729515],[23.8410616,52.0745474],[23.8347316,52.0805874],[23.838079,52.0814709],[23.8376283,52.0834224],[23.8381433,52.0835543],[23.8362926,52.0855288],[23.8356328,52.0853574],[23.8351607,52.0858618],[23.8295066,52.0882713],[23.8285518,52.0891975],[23.8307726,52.0901534],[23.8310967,52.0918541],[23.8270043,52.0923918],[23.8257301,52.0924935],[23.8257301,52.0942567],[23.8254109,52.0958288],[23.8234079,52.0967931],[23.8131136,52.0968279],[23.8134102,52.1031605],[23.822189,52.104377],[23.8224832,52.10057],[23.8237238,52.1007851],[23.8241529,52.1002578],[23.825682,52.1003827],[23.8316656,52.1011792],[23.8331537,52.0966614],[23.8349242,52.0974218],[23.8393315,52.0980116],[23.841641,52.0984503],[23.8428915,52.0983973],[23.8450742,52.0981488],[23.8538069,52.100406],[23.8526739,52.1075461],[23.8501811,52.108482],[23.8502455,52.1112758],[23.8499665,52.1125541],[23.8543868,52.1128967],[23.854011,52.1173888],[23.8506737,52.1167181],[23.8385295,52.1140431],[23.8351982,52.1135074],[23.8285786,52.1126477],[23.8277479,52.1135901],[23.8258927,52.1134835],[23.8250691,52.1151781],[23.8188873,52.1150174],[23.8143576,52.1181792],[23.8124254,52.1209687],[23.8133105,52.1218735],[23.8131132,52.1245619],[23.8108704,52.1237191],[23.8032726,52.1276283],[23.8087712,52.1295023],[23.8080874,52.1306426],[23.8006561,52.1325488],[23.7976743,52.133286],[23.7924102,52.1347964],[23.7495427,52.1462796],[23.7411654,52.1484889],[23.7360569,52.14914],[23.7309263,52.1495188],[23.7230115,52.1498335],[23.6873084,52.1510404],[23.6258933,52.1368599],[23.5787811,52.1260673],[23.5726259,52.1256116],[23.5715095,52.1259594],[23.5688016,52.1236744],[23.5687898,52.1203781],[23.565437,52.1162779],[23.5674386,52.1157234],[23.5695432,52.1158834],[23.5711042,52.1163681],[23.5741389,52.1177275],[23.5761143,52.1184044],[23.576946,52.119429],[23.5778108,52.1199311],[23.5785781,52.120105],[23.5801661,52.1200532],[23.5809892,52.1198076],[23.5826602,52.1189561],[23.5839342,52.1180645],[23.5846875,52.1176936],[23.5860806,52.1173114],[23.5881812,52.1170868],[23.5904086,52.1171388],[23.593837,52.117492],[23.5952532,52.1178576],[23.5967419,52.117879],[23.5977611,52.1174755],[23.6007523,52.1159998],[23.603241,52.1145935],[23.6041474,52.1139475],[23.6054832,52.1127155],[23.6068994,52.1106334],[23.6073446,52.1096384],[23.6080505,52.1086534],[23.6086178,52.1082953],[23.6103068,52.1079514],[23.6117665,52.108058],[23.6137988,52.1086847],[23.6151552,52.1094638],[23.6163432,52.1096025],[23.6179393,52.1093353],[23.6187118,52.1089202],[23.6199563,52.1079869],[23.620643,52.1066007],[23.6206859,52.1058396],[23.6204553,52.1053355],[23.6194467,52.1048808],[23.6159116,52.1048874],[23.6144257,52.1046139],[23.6126918,52.1040295],[23.6119284,52.1035804],[23.6111641,52.1027259],[23.6105217,52.1013074],[23.6104509,52.1004941],[23.6109656,52.09891],[23.6122902,52.0970911],[23.6139367,52.0956722]]]},"properties":{"slug":"brest-city","name":"Брест","level":"city","regionSlug":"brest","osmRelationId":72615}},{"type":"Feature","geometry":{"type":"Polygon","coordinates":[[[30.1121778,55.2432934],[30.1114054,55.2437644],[30.1105283,55.2437338],[30.1104693,55.2445595],[30.1098524,55.2449173],[30.1078568,55.24485],[30.1063977,55.2446176],[30.1044236,55.2441252],[30.1040534,55.243902],[30.1041701,55.2431007],[30.1051746,55.2429127],[30.1055099,55.2414355],[30.1044343,55.2411052],[30.1033105,55.2410685],[30.1031012,55.240544],[30.1020344,55.240466],[30.1006262,55.2398986],[30.1002963,55.2393435],[30.1014631,55.23827],[30.1028149,55.2375955],[30.1050626,55.2366749],[30.1051458,55.2352709],[30.1035901,55.2349742],[30.1026406,55.232163],[30.10116,55.2315389],[30.100291,55.2315022],[30.0993576,55.2311015],[30.098628,55.2302204],[30.0968846,55.2292965],[30.0968631,55.2286724],[30.0948675,55.2277913],[30.0937732,55.2281218],[30.0887736,55.2261025],[30.086542,55.2252581],[30.0821002,55.2223452],[30.0813492,55.2206684],[30.0802499,55.2196666],[30.0776267,55.2169522],[30.0768458,55.21632],[30.0767868,55.215864],[30.0783693,55.2151295],[30.0830041,55.215714],[30.0834547,55.2157018],[30.084592,55.2130208],[30.0853645,55.2114905],[30.0867163,55.2103519],[30.0880467,55.2095561],[30.089259,55.2094582],[30.0883256,55.2084787],[30.0890874,55.2076217],[30.1079594,55.2056504],[30.1078307,55.2012054],[30.1124441,55.2004706],[30.1127659,55.198499],[30.1137101,55.1981316],[30.1149117,55.1965884],[30.115534,55.1950208],[30.1183932,55.1928896],[30.1202705,55.191957],[30.121558,55.1905852],[30.1230533,55.1892303],[30.124638,55.1901439],[30.129565,55.1854468],[30.1357149,55.1865444],[30.1372415,55.1841543],[30.1355785,55.1836398],[30.1351654,55.1836674],[30.1331377,55.1831467],[30.1326495,55.1833519],[30.1303267,55.1825586],[30.1292378,55.1820471],[30.1290607,55.1817194],[30.1256061,55.180825],[30.1245063,55.1806749],[30.12456,55.1803625],[30.1233691,55.1797146],[30.1219743,55.1797928],[30.1208558,55.1795341],[30.1171822,55.1794913],[30.1135137,55.1796146],[30.1107905,55.1794565],[30.1077195,55.179198],[30.1077706,55.1790386],[30.1031207,55.1783726],[30.0970911,55.1774659],[30.090568,55.1768655],[30.0860833,55.1768655],[30.0879501,55.1763509],[30.091099,55.1751132],[30.0921397,55.1745618],[30.0911741,55.1737837],[30.0905304,55.1735386],[30.0899296,55.1736979],[30.0898867,55.1724847],[30.0908523,55.1715166],[30.0916677,55.1712102],[30.0934057,55.1715411],[30.0934088,55.1708781],[30.0911366,55.1698008],[30.0913109,55.1690962],[30.0920029,55.1685998],[30.0916455,55.1677763],[30.0946104,55.1666897],[30.0973999,55.1653445],[30.100911,55.1638001],[30.1036535,55.1628264],[30.1044072,55.1627851],[30.1062995,55.1621385],[30.1087296,55.16101],[30.1097193,55.1607571],[30.1115432,55.1599343],[30.1123828,55.1596738],[30.1157999,55.1591176],[30.1188683,55.158903],[30.1189618,55.1568754],[30.11837,55.15557],[30.11878,55.1548],[30.11868,55.154369],[30.119169,55.15409],[30.1188108,55.1530439],[30.11812,55.153339],[30.11754,55.15319],[30.1173349,55.1525817],[30.1159498,55.1517028],[30.1161969,55.1508436],[30.1165375,55.1506091],[30.1164892,55.1497991],[30.1156095,55.1484556],[30.1157302,55.1478103],[30.1147807,55.1477858],[30.1148638,55.1466653],[30.1167731,55.1459139],[30.1194339,55.1452885],[30.1251416,55.144099],[30.1309567,55.1430443],[30.1327376,55.1429953],[30.1349692,55.1432773],[30.1406555,55.1447489],[30.1426082,55.1456441],[30.14396,55.1468459],[30.1462345,55.1486116],[30.1473289,55.1491512],[30.1496034,55.149519],[30.1509123,55.1494577],[30.1529508,55.1489182],[30.1538037,55.1485442],[30.1545333,55.1479066],[30.1551126,55.1479679],[30.1565718,55.1466252],[30.1581704,55.1460059],[30.1601498,55.1458771],[30.1612656,55.1463738],[30.1654972,55.1443686],[30.1667082,55.1439143],[30.1662825,55.1431838],[30.1664263,55.1418961],[30.1671899,55.1408623],[30.166891,55.1403343],[30.16742,55.1400917],[30.1668068,55.1391791],[30.1704597,55.1384301],[30.1696898,55.136615],[30.1714622,55.1363172],[30.1712304,55.1358375],[30.1766584,55.1351733],[30.1768158,55.1345688],[30.176348,55.1335421],[30.1740786,55.1304061],[30.175685,55.130321],[30.1770021,55.1309627],[30.1792293,55.1316307],[30.193115,55.1337199],[30.1978945,55.1346041],[30.2000716,55.1352127],[30.2029319,55.1362713],[30.2060632,55.1379951],[30.206926,55.1383357],[30.2101181,55.1401152],[30.212487,55.1410608],[30.2158513,55.1426274],[30.2176841,55.1437617],[30.2184952,55.1444395],[30.219089,55.1455159],[30.2204362,55.146171],[30.2237864,55.1466986],[30.2246085,55.1467142],[30.2299943,55.1461073],[30.2310214,55.1460362],[30.2430096,55.1493835],[30.2409142,55.151265],[30.2414298,55.1514182],[30.2505045,55.1436533],[30.2514244,55.1434365],[30.2538523,55.1431196],[30.2542992,55.1431697],[30.2560914,55.1440312],[30.2552049,55.1453811],[30.258919,55.1460823],[30.2667288,55.1470919],[30.2676513,55.1470391],[30.2689862,55.1467404],[30.2782774,55.1393638],[30.2790177,55.1392964],[30.282526,55.1404247],[30.2846718,55.1420988],[30.2866566,55.1420865],[30.2925283,55.1443703],[30.2937144,55.1453789],[30.2944606,55.1465483],[30.2949413,55.1476341],[30.2952707,55.149266],[30.2960846,55.1516758],[30.2944715,55.1539025],[30.2812107,55.1571882],[30.2796131,55.155313],[30.2761863,55.156208],[30.2748532,55.1592606],[30.281922,55.1615757],[30.2861105,55.16291],[30.2931575,55.1652222],[30.3024602,55.1640392],[30.3035116,55.1626173],[30.3059578,55.1621147],[30.3069234,55.1623476],[30.3080606,55.1630954],[30.3098202,55.1630463],[30.3100777,55.1634508],[30.3109467,55.1636837],[30.3124248,55.1633108],[30.3142739,55.164015],[30.3160214,55.1650626],[30.3171962,55.1667525],[30.3001253,55.1689035],[30.3009494,55.1723592],[30.3049975,55.1745554],[30.304914,55.177745],[30.3050821,55.1815422],[30.3090423,55.1842726],[30.3129608,55.1861561],[30.3128326,55.187741],[30.3139333,55.1882146],[30.3143307,55.1890092],[30.3090253,55.1911517],[30.308446,55.1949116],[30.3053043,55.195579],[30.2972521,55.19554],[30.2962252,55.195928],[30.2934308,55.1962941],[30.2889356,55.1975694],[30.2891334,55.1981787],[30.2864367,55.1987641],[30.2879619,55.1999915],[30.2855105,55.2016175],[30.2848075,55.202656],[30.2842018,55.2046401],[30.2840195,55.2055727],[30.2829714,55.2057947],[30.2784853,55.2055249],[30.2717927,55.204517],[30.2738871,55.2074141],[30.2757832,55.2092967],[30.2761574,55.2104586],[30.2759649,55.2119482],[30.2751591,55.2154742],[30.2770828,55.2169507],[30.2768183,55.217347],[30.277226,55.2182161],[30.2790175,55.2202984],[30.2795434,55.2203949],[30.2807717,55.2219231],[30.2796386,55.2235615],[30.2797762,55.2239618],[30.2805054,55.2243188],[30.279047,55.2259393],[30.2774026,55.2267524],[30.2762881,55.2287049],[30.2774339,55.2306703],[30.2790838,55.2339006],[30.2810185,55.2353153],[30.2795889,55.2362094],[30.276249,55.2349489],[30.2735126,55.2383985],[30.272033,55.2401241],[30.2712814,55.2406411],[30.2681316,55.2416675],[30.2667696,55.2424477],[30.2660325,55.243402],[30.2656054,55.244399],[30.2671229,55.2469151],[30.2714651,55.2539092],[30.2712076,55.2546581],[30.2707455,55.2551548],[30.2700783,55.2565304],[30.2671482,55.2561228],[30.2654847,55.2590635],[30.2671679,55.2593524],[30.2669728,55.2596999],[30.2652897,55.2594126],[30.2649563,55.2600775],[30.2546096,55.2581126],[30.2397384,55.2549922],[30.2277807,55.2527031],[30.2279612,55.2522835],[30.2263151,55.2519827],[30.2267644,55.2513551],[30.2284311,55.251541],[30.2307779,55.2480362],[30.2235768,55.2466686],[30.2191174,55.2456789],[30.2095612,55.2434434],[30.2104308,55.243498],[30.2106208,55.2430819],[30.2118338,55.2427631],[30.2173484,55.2398026],[30.217284,55.2390319],[30.217961,55.2379901],[30.219094,55.2375273],[30.2192343,55.2370508],[30.2198965,55.2363273],[30.2190763,55.2356259],[30.2201738,55.2346185],[30.2186228,55.2329175],[30.217544,55.2312616],[30.2189298,55.2309011],[30.22054,55.2306573],[30.2236628,55.2307035],[30.228822,55.229753],[30.2293973,55.2298588],[30.2394452,55.2273965],[30.2400738,55.2244535],[30.2399893,55.2232468],[30.2345699,55.2237253],[30.2332216,55.2228867],[30.2342037,55.2221076],[30.2348701,55.221836],[30.2337123,55.2202307],[30.232118,55.2207933],[30.2305253,55.2208019],[30.2303648,55.2203987],[30.2285098,55.2197116],[30.2285385,55.2186506],[30.2281629,55.2184379],[30.2238832,55.2188377],[30.2240292,55.219406],[30.2236548,55.219672],[30.2223002,55.220004],[30.2178166,55.2206704],[30.2163622,55.2204272],[30.2161415,55.2196352],[30.2149422,55.2200524],[30.213676,55.220148],[30.2122268,55.2199331],[30.2109333,55.2199444],[30.2108459,55.2195352],[30.2102419,55.2192632],[30.2104032,55.2180395],[30.2095635,55.2178599],[30.2091072,55.2180948],[30.2074701,55.2179508],[30.2060915,55.2215723],[30.2059705,55.2222266],[30.2076814,55.2232872],[30.2073467,55.2239058],[30.2042592,55.2256148],[30.203743,55.2264779],[30.2034009,55.2274505],[30.2026069,55.228919],[30.2024654,55.2344633],[30.2020362,55.2345044],[30.2008377,55.2352929],[30.1995895,55.2371613],[30.1996886,55.2389049],[30.194998,55.2372473],[30.1925692,55.236229],[30.1887171,55.2361141],[30.1859343,55.2346907],[30.1835677,55.2337456],[30.1822341,55.2334139],[30.1802283,55.2331523],[30.1789565,55.2337387],[30.1781009,55.2337112],[30.1765639,55.2329556],[30.1723267,55.2313654],[30.1684155,55.232897],[30.1676761,55.2330643],[30.1652144,55.2324262],[30.165174,55.2321067],[30.1634697,55.2314271],[30.1619232,55.232467],[30.1580559,55.235216],[30.1542581,55.2323862],[30.1554222,55.2308399],[30.1518666,55.2299909],[30.1455469,55.2305624],[30.14417,55.2296177],[30.1432728,55.2292345],[30.1404981,55.228479],[30.1408968,55.2273302],[30.1367393,55.2253207],[30.1341355,55.2247214],[30.1314312,55.223991],[30.1306379,55.2234455],[30.1302124,55.2227576],[30.1294363,55.2234272],[30.1279469,55.2231075],[30.1277517,55.2234507],[30.127833,55.2252779],[30.1271338,55.2275224],[30.1271338,55.2297482],[30.1273289,55.2307498],[30.1281095,55.2322335],[30.1281583,55.2338934],[30.1251384,55.2370487],[30.1234182,55.2385635],[30.1231722,55.2396216],[30.1235086,55.240003],[30.121665,55.2399467],[30.1203589,55.240462],[30.1172731,55.2408819],[30.1157738,55.240911],[30.115682,55.2423573],[30.1130898,55.2422964],[30.1117487,55.2427062],[30.1121778,55.2432934]]]},"properties":{"slug":"vitebsk-city","name":"Витебск","level":"city","regionSlug":"vitebsk","osmRelationId":6825777}},{"type":"Feature","geometry":{"type":"Polygon","coordinates":[[[30.9718334,52.4815707],[30.9725607,52.4801449],[30.9755954,52.4738874],[30.977731,52.4696034],[30.9767551,52.4701238],[30.9747298,52.4708953],[30.9736438,52.4711368],[30.9716255,52.4712757],[30.9690654,52.4710417],[30.9661641,52.4702928],[30.9614145,52.4689394],[30.9589144,52.4679938],[30.9570502,52.4668343],[30.9537528,52.4640866],[30.9501735,52.4610134],[30.948603,52.462195],[30.9476923,52.4630281],[30.9464739,52.4645397],[30.9460488,52.4644593],[30.9439575,52.4677354],[30.9402351,52.4676684],[30.9396021,52.4675409],[30.9383593,52.465513],[30.9367542,52.4658164],[30.9360868,52.465137],[30.9352445,52.4634315],[30.9335294,52.4629105],[30.9315484,52.462671],[30.930619,52.4622585],[30.9297497,52.4621151],[30.9264937,52.4611389],[30.9256951,52.4621721],[30.9198697,52.4606],[30.91933,52.4611629],[30.9184586,52.4611073],[30.914366,52.4635445],[30.912515,52.4621276],[30.9142601,52.4616852],[30.9158665,52.4601772],[30.9175288,52.4607924],[30.9195006,52.4590499],[30.9185696,52.4583257],[30.9202841,52.4577145],[30.9204378,52.4571343],[30.919306,52.4568258],[30.9104617,52.45409],[30.9101471,52.4545459],[30.9088875,52.4539948],[30.9091447,52.4536738],[30.9077722,52.4532434],[30.9095609,52.4512072],[30.9113343,52.4490601],[30.9165109,52.4429539],[30.915991,52.4426658],[30.9149969,52.4427205],[30.9136762,52.4435054],[30.9121372,52.4436569],[30.9121814,52.4446089],[30.9114858,52.4451014],[30.9078252,52.4450124],[30.9078157,52.4424841],[30.9033502,52.4422453],[30.9000771,52.4418227],[30.8982528,52.441742],[30.8975437,52.4411458],[30.8978502,52.4403714],[30.900111,52.4404451],[30.9001281,52.4388736],[30.9006011,52.437501],[30.8981234,52.4374114],[30.8985043,52.4368859],[30.8970994,52.436565],[30.8941558,52.4363261],[30.8935014,52.4351693],[30.8930143,52.4347167],[30.89157,52.4356746],[30.891191,52.4357641],[30.8898731,52.4339179],[30.8922884,52.4314988],[30.8917146,52.4309471],[30.8910305,52.4307512],[30.8888534,52.4311796],[30.8876555,52.4311677],[30.8867451,52.4327921],[30.8862121,52.4339979],[30.8858171,52.4344449],[30.8856665,52.435208],[30.8857103,52.4364054],[30.8858888,52.4370831],[30.8855092,52.4375812],[30.8825102,52.4373599],[30.8823794,52.4379582],[30.8731647,52.4372563],[30.8714482,52.4372381],[30.8697971,52.4374161],[30.8645481,52.439014],[30.8643395,52.4387628],[30.8471348,52.4442978],[30.8388488,52.4468853],[30.8389622,52.4470195],[30.8319083,52.4493593],[30.8289505,52.4509408],[30.8285622,52.4507055],[30.8273189,52.4511862],[30.8259355,52.4521112],[30.8256612,52.4531809],[30.8249942,52.4538569],[30.8243824,52.4532958],[30.8229212,52.4539991],[30.8203832,52.4559807],[30.8111954,52.4629407],[30.8137319,52.4641998],[30.8124174,52.4652249],[30.8119513,52.4649994],[30.8127306,52.4644939],[30.8101198,52.463393],[30.8060555,52.4664964],[30.804943,52.4659594],[30.8049928,52.4655237],[30.8057004,52.4649648],[30.8046597,52.4644987],[30.8040487,52.4644417],[30.8032407,52.4650702],[30.8012642,52.4640288],[30.8061746,52.460385],[30.8109091,52.4624682],[30.819875,52.4556804],[30.8192112,52.4540964],[30.819136,52.4536299],[30.8185634,52.4533526],[30.815539,52.4526428],[30.8116987,52.4543294],[30.8105877,52.4559867],[30.8095297,52.4557414],[30.8102154,52.4545681],[30.8104558,52.4529176],[30.8100669,52.4522312],[30.8073509,52.4515783],[30.8096918,52.4478566],[30.8116139,52.4472591],[30.8131874,52.4470705],[30.81485,52.4433067],[30.8152775,52.4433093],[30.8157571,52.4426444],[30.8163252,52.4428031],[30.817605,52.4426856],[30.8181966,52.4417752],[30.8205283,52.4378296],[30.822609,52.4345517],[30.8314087,52.4332133],[30.832709,52.432101],[30.8338106,52.4315077],[30.8354803,52.4311127],[30.8363814,52.4305669],[30.8428233,52.4305659],[30.8424209,52.4296215],[30.8427246,52.4290576],[30.8432371,52.429038],[30.8441442,52.424816],[30.8452448,52.420886],[30.8508853,52.4218449],[30.8574301,52.4229027],[30.8583685,52.4231299],[30.8621578,52.4238344],[30.8713651,52.4254382],[30.8712551,52.425671],[30.8840155,52.4278348],[30.8859851,52.4276443],[30.8877602,52.4278096],[30.886838,52.4272712],[30.8848351,52.4266428],[30.8839482,52.4261903],[30.8823097,52.4247972],[30.881893,52.4238878],[30.8813197,52.4208421],[30.8793495,52.4211976],[30.8788405,52.4201141],[30.8789477,52.4193482],[30.8806905,52.4190733],[30.8801795,52.418421],[30.8772475,52.4161532],[30.8787774,52.4143632],[30.8836932,52.4158926],[30.8844352,52.4157003],[30.8848641,52.4148645],[30.8840987,52.4147041],[30.8858959,52.4122369],[30.8894033,52.4132241],[30.8895222,52.4130741],[30.8911773,52.4134793],[30.896394,52.414945],[30.9018618,52.4083869],[30.8967051,52.4046081],[30.902001,52.4021519],[30.9042639,52.4010351],[30.9027917,52.3997438],[30.9024459,52.3987622],[30.9031752,52.3982524],[30.9021436,52.39726],[30.9001035,52.3970012],[30.8996698,52.3977484],[30.8984942,52.3976095],[30.8979885,52.3968204],[30.8990614,52.3961527],[30.8962995,52.3953355],[30.8966834,52.3943765],[30.8958928,52.3942813],[30.8963891,52.3926271],[30.8951804,52.3914189],[30.8983294,52.3895828],[30.8999047,52.3901291],[30.9042036,52.3929053],[30.9115143,52.3935072],[30.9130878,52.3892188],[30.9121262,52.3888044],[30.9124395,52.3878178],[30.9138202,52.3846377],[30.915422,52.3828762],[30.9159383,52.3829471],[30.9147838,52.3853839],[30.9159993,52.3857007],[30.9201145,52.3865121],[30.920427,52.3866888],[30.9219063,52.3866565],[30.9226559,52.385042],[30.9278553,52.3871372],[30.9280847,52.386777],[30.9302742,52.38498],[30.9330618,52.3833071],[30.9381206,52.3796055],[30.9401661,52.3787803],[30.9430624,52.3787107],[30.9439947,52.3779005],[30.9449549,52.378068],[30.945713,52.3773155],[30.9486205,52.3753905],[30.9493229,52.3750818],[30.9503863,52.3750242],[30.9505262,52.3756735],[30.9524795,52.37658],[30.9531944,52.3766984],[30.9546141,52.3771993],[30.954757,52.3777272],[30.9571878,52.3781782],[30.957593,52.3787642],[30.9574398,52.3803125],[30.957484,52.3825028],[30.9580594,52.3841776],[30.9594756,52.3864031],[30.960102,52.3884559],[30.9614876,52.3909346],[30.9619643,52.3913024],[30.9625294,52.3922394],[30.9633533,52.3929291],[30.965927,52.394051],[30.96846,52.394643],[30.9711018,52.3945953],[30.9722253,52.3942836],[30.9752311,52.3929848],[30.9764445,52.3923488],[30.978949,52.3906566],[30.9813719,52.3891233],[30.9833048,52.388238],[30.9845532,52.3875283],[30.9863071,52.3869112],[30.9874661,52.3866216],[30.9910168,52.3861042],[30.9934573,52.385819],[30.9905586,52.3821739],[30.9900323,52.3807514],[30.9915966,52.37906],[30.9948299,52.3779611],[30.9960783,52.3776199],[30.9985631,52.3771624],[31.0037188,52.3768989],[31.0042968,52.3753855],[31.0039433,52.3711336],[31.0037435,52.3711173],[31.002065,52.3699341],[31.0012462,52.3696937],[31.0017259,52.3691967],[31.0025561,52.3690236],[31.0028794,52.3686089],[31.0045227,52.368733],[31.0042094,52.3666537],[31.0038844,52.3652294],[31.002369,52.3614294],[31.0011888,52.3586397],[31.0010109,52.3578967],[31.0011594,52.356272],[31.0016392,52.355071],[31.0026747,52.3536049],[31.0049117,52.351988],[31.0078504,52.3507499],[31.0095567,52.3503552],[31.0122979,52.3500104],[31.0212136,52.3498702],[31.0212602,52.3486647],[31.0209791,52.3486647],[31.0214744,52.3444252],[31.0303865,52.3442854],[31.056092,52.3434547],[31.0559326,52.3452863],[31.0574856,52.3489003],[31.0577062,52.3490345],[31.0622777,52.349313],[31.0612526,52.3510727],[31.0609669,52.3511155],[31.0602666,52.3527703],[31.0553976,52.3594319],[31.0550706,52.3600093],[31.0540302,52.3607468],[31.053008,52.361279],[31.0519952,52.3613114],[31.0495185,52.3655315],[31.0485786,52.3663064],[31.0438747,52.3720942],[31.0416972,52.3734083],[31.039562,52.3749827],[31.0380783,52.3758102],[31.0367545,52.3763551],[31.0346653,52.3767542],[31.0340808,52.3780883],[31.0331115,52.37913],[31.0331986,52.3796961],[31.0351502,52.3794804],[31.0355765,52.3803495],[31.0357857,52.3822303],[31.0363979,52.3827351],[31.0352819,52.3838423],[31.0360775,52.3849852],[31.0374679,52.3867406],[31.038318,52.3868032],[31.0395491,52.3854099],[31.0380828,52.3845125],[31.0380775,52.3839362],[31.0396166,52.3839523],[31.0412915,52.3827026],[31.0426379,52.3819169],[31.042779,52.3815331],[31.0437154,52.3812564],[31.0455153,52.3802293],[31.0478066,52.3813685],[31.0479778,52.3818036],[31.0454579,52.3837208],[31.0432616,52.3852303],[31.0439977,52.3856682],[31.0409892,52.3870876],[31.0415414,52.3887151],[31.039959,52.3890253],[31.039743,52.3894435],[31.0405145,52.3913204],[31.0419658,52.3912698],[31.0407582,52.3940883],[31.0410561,52.39429],[31.0411951,52.3960296],[31.0462273,52.3942532],[31.0467464,52.393979],[31.049214,52.393753],[31.0508509,52.3938666],[31.0578633,52.3952005],[31.0605909,52.3963397],[31.0618708,52.3969489],[31.0641112,52.3973646],[31.0646656,52.3977767],[31.0655274,52.398035],[31.0656213,52.3985492],[31.0647042,52.399172],[31.0660847,52.3998866],[31.0666526,52.3999844],[31.0674879,52.3993257],[31.0682032,52.3994234],[31.0725829,52.3994415],[31.0743744,52.3992507],[31.081713,52.3992288],[31.0836497,52.3988543],[31.0837367,52.4025397],[31.0854159,52.4025196],[31.0854419,52.401109],[31.0857797,52.4009895],[31.0858392,52.4000685],[31.0875784,52.399926],[31.0878992,52.4000784],[31.0880617,52.4018041],[31.0886789,52.4038124],[31.0862728,52.4038671],[31.0856718,52.4043607],[31.0856361,52.4050806],[31.0839954,52.4051182],[31.0833447,52.4049845],[31.0815637,52.4050136],[31.0794469,52.4049423],[31.0769649,52.4049794],[31.077007,52.4042961],[31.0750276,52.4043746],[31.0738537,52.4042592],[31.073567,52.4038485],[31.0700136,52.4038752],[31.0699246,52.4036689],[31.0645575,52.4036281],[31.0638294,52.4038703],[31.0610425,52.4037378],[31.0597395,52.4039975],[31.0563545,52.4051255],[31.0544327,52.4058948],[31.0541395,52.4063026],[31.0530691,52.4068686],[31.0526462,52.4066248],[31.0520107,52.4070195],[31.051214,52.4079641],[31.0517077,52.408055],[31.0513314,52.408709],[31.0525407,52.4098612],[31.0523183,52.4103804],[31.0529297,52.4117342],[31.0530069,52.412509],[31.0524296,52.4140441],[31.0524451,52.4144512],[31.0534927,52.4156681],[31.0545224,52.416658],[31.0543759,52.4171717],[31.0531988,52.4182548],[31.0566715,52.4205467],[31.0599604,52.4222544],[31.0609047,52.422144],[31.0619113,52.4211284],[31.0630695,52.4205938],[31.0635028,52.4196565],[31.0647652,52.4188811],[31.066967,52.4172341],[31.0675053,52.4169766],[31.0687724,52.4158233],[31.0703135,52.4149678],[31.0729742,52.4146115],[31.0739444,52.414321],[31.0746262,52.4138637],[31.0754732,52.4128058],[31.0754878,52.4123421],[31.0744804,52.4110555],[31.0744975,52.4100999],[31.0754223,52.4097459],[31.0768149,52.4096852],[31.0778076,52.4098628],[31.07893,52.4102984],[31.080559,52.4113276],[31.0817404,52.4118836],[31.0822103,52.4123559],[31.0816881,52.4129676],[31.081222,52.4140422],[31.0812482,52.4145495],[31.0756411,52.4170136],[31.0744921,52.4171555],[31.0735482,52.417733],[31.0738943,52.4180829],[31.0750269,52.418309],[31.0776531,52.4202711],[31.0781004,52.4209277],[31.0782249,52.4218596],[31.0820488,52.4207939],[31.0818134,52.4200069],[31.0824294,52.4198737],[31.0833224,52.4201489],[31.0844773,52.4201756],[31.0872291,52.4196565],[31.0875502,52.4198368],[31.0874567,52.4208532],[31.0901104,52.4211412],[31.0914259,52.4214573],[31.0915063,52.4227343],[31.0913997,52.4237743],[31.0907714,52.4260867],[31.0934809,52.4261139],[31.1001774,52.426093],[31.1088415,52.4261996],[31.1089095,52.4296258],[31.1130919,52.4295762],[31.1130774,52.4322354],[31.1278154,52.4321153],[31.1334976,52.4313541],[31.1340433,52.4323854],[31.1352582,52.4340633],[31.136258,52.4348852],[31.1402788,52.4367816],[31.1410145,52.4369646],[31.1429119,52.4368416],[31.1507032,52.4358602],[31.1571105,52.4350002],[31.1587993,52.4344604],[31.1626161,52.4319028],[31.1635128,52.4318655],[31.1649008,52.4325891],[31.1715281,52.4344259],[31.1691631,52.4377222],[31.1693786,52.4381645],[31.1695908,52.4396397],[31.1401163,52.4441139],[31.1331834,52.4451842],[31.1183492,52.4473822],[31.1158708,52.4463876],[31.1117307,52.4435517],[31.1120714,52.4425653],[31.1122328,52.4405355],[31.1124055,52.440068],[31.1093405,52.439425],[31.1063516,52.4414556],[31.1007105,52.4388716],[31.1004144,52.4384473],[31.0923476,52.4342556],[31.0918962,52.4326403],[31.0915232,52.4317079],[31.0926445,52.4285407],[31.0933997,52.426228],[31.0906877,52.4262766],[31.0884159,52.4317997],[31.088582,52.4328409],[31.0881208,52.4340837],[31.0864247,52.4392114],[31.0845139,52.4380893],[31.0831844,52.4369301],[31.0773288,52.4316032],[31.074774,52.429315],[31.0725736,52.4279616],[31.0687908,52.426368],[31.0608609,52.4225968],[31.057876,52.4238902],[31.0560614,52.4249354],[31.0547067,52.4258661],[31.0562673,52.4276789],[31.0560254,52.4281291],[31.05187,52.4290896],[31.0502323,52.4290794],[31.0519269,52.438355],[31.0526505,52.4383997],[31.0527792,52.4391218],[31.0532358,52.4394204],[31.0550002,52.4394089],[31.0547812,52.440844],[31.054215,52.4418826],[31.0542802,52.4435187],[31.0547854,52.4443826],[31.0552635,52.4447646],[31.0590139,52.4473636],[31.0598172,52.4475805],[31.0601466,52.4481836],[31.0581931,52.4483781],[31.0575076,52.4490497],[31.0556411,52.4499508],[31.0519428,52.4515059],[31.0538472,52.4526616],[31.0555506,52.4534304],[31.0585176,52.4543565],[31.0615394,52.4554183],[31.0636184,52.4560193],[31.062291,52.457236],[31.0660152,52.4584037],[31.0668904,52.4585627],[31.0604047,52.4627959],[31.0570766,52.4650482],[31.0532051,52.4675748],[31.0448878,52.4714345],[31.0360361,52.4752829],[31.0365887,52.4756115],[31.0342358,52.4767892],[31.033634,52.4772996],[31.0329115,52.4769228],[31.0277579,52.4791598],[31.028159,52.4795397],[31.0254164,52.4807256],[31.0238251,52.4812454],[31.0223953,52.482016],[31.0203341,52.4829464],[31.0199205,52.4834727],[31.0167097,52.4849522],[31.0147215,52.4850926],[31.0138348,52.4853364],[31.0142858,52.4856544],[31.0055372,52.4896246],[31.0043947,52.4895033],[31.0012345,52.4909421],[31.0009805,52.4913536],[31.0013086,52.4917426],[30.9988802,52.4928569],[30.9964204,52.493775],[30.994773,52.4936992],[30.9890928,52.4961989],[30.9870893,52.4969382],[30.9870788,52.4971626],[30.9838802,52.4984851],[30.9833945,52.4987826],[30.9793043,52.5002821],[30.9777288,52.5007057],[30.9764538,52.5016574],[30.9747974,52.5016557],[30.9732479,52.5021103],[30.9676611,52.504339],[30.9658887,52.5049473],[30.9650195,52.5041056],[30.9617121,52.5029567],[30.9631181,52.500558],[30.9653429,52.4965254],[30.9660296,52.4961005],[30.965535,52.4950439],[30.964908,52.4949466],[30.9654498,52.4937363],[30.9651595,52.4936842],[30.9664888,52.4908255],[30.9677511,52.4883698],[30.968416,52.4883296],[30.9718334,52.4815707]]]},"properties":{"slug":"gomel-city","name":"Гомель","level":"city","regionSlug":"gomel","osmRelationId":163244}},{"type":"Feature","geometry":{"type":"Polygon","coordinates":[[[23.7810981,53.7331074],[23.7794751,53.7321151],[23.7786807,53.7312094],[23.7783561,53.7302169],[23.7789008,53.7289198],[23.7805308,53.7267678],[23.7808441,53.7261212],[23.7808813,53.7245384],[23.780092,53.7231937],[23.7788297,53.7220863],[23.7775016,53.7211594],[23.7759483,53.7203424],[23.7735289,53.7193075],[23.7696256,53.718158],[23.7681133,53.7172699],[23.7677566,53.7169286],[23.7675232,53.7160844],[23.7681679,53.7145768],[23.7705205,53.7113657],[23.77217,53.7099163],[23.7746796,53.7081014],[23.7754016,53.7074708],[23.7757899,53.706731],[23.7757292,53.705452],[23.7751088,53.7040629],[23.7741091,53.7022432],[23.7742065,53.7009986],[23.7753131,53.6989205],[23.7761679,53.6955991],[23.7764301,53.6939071],[23.7762841,53.6927137],[23.7755064,53.6906095],[23.7749763,53.6887785],[23.7745858,53.6878064],[23.7738034,53.686391],[23.7729586,53.6840828],[23.772434,53.6829336],[23.7725947,53.6818131],[23.7730438,53.6813173],[23.7752283,53.6799187],[23.772423,53.6789003],[23.7704404,53.6775228],[23.7673469,53.6769651],[23.7643195,53.6772631],[23.7621301,53.6787016],[23.7600798,53.6787798],[23.7608893,53.6773552],[23.7577275,53.6772076],[23.7519534,53.6777845],[23.7483679,53.6786849],[23.7478772,53.6799254],[23.7459901,53.6803823],[23.7462326,53.6811848],[23.7361941,53.6833237],[23.736679,53.6843565],[23.7382594,53.6844367],[23.7401104,53.6873971],[23.7395887,53.6892386],[23.7383008,53.6892739],[23.7367896,53.6897129],[23.7306297,53.6900362],[23.7304746,53.6895384],[23.7155202,53.6904233],[23.7142015,53.690364],[23.7120829,53.6847675],[23.7100266,53.6794598],[23.7094451,53.6773032],[23.7109185,53.677246],[23.7119464,53.6725467],[23.7136262,53.669857],[23.7186619,53.6701094],[23.7186788,53.6686415],[23.7192087,53.6669736],[23.7205767,53.6654611],[23.7234759,53.6625823],[23.7238349,53.6615762],[23.7238446,53.6603021],[23.7356114,53.6601553],[23.7517433,53.6599264],[23.7517036,53.6572249],[23.755219,53.6571425],[23.7581295,53.657131],[23.7581556,53.65667],[23.7566354,53.6560916],[23.7563717,53.6554956],[23.7580048,53.6547795],[23.7560566,53.6535797],[23.7553805,53.6537624],[23.7550315,53.6543125],[23.7539781,53.654068],[23.7542728,53.6534527],[23.7526254,53.6531984],[23.7516787,53.6541967],[23.7508852,53.6539134],[23.7525722,53.6531334],[23.75428,53.6533752],[23.7545063,53.6529408],[23.7575796,53.6530353],[23.7572431,53.6526442],[23.7577779,53.6519711],[23.7582578,53.6503885],[23.7547229,53.6491909],[23.752519,53.6502867],[23.7511839,53.6499285],[23.7502702,53.6481777],[23.7493123,53.6490115],[23.746403,53.6479189],[23.7458748,53.6471368],[23.7464626,53.6459242],[23.7446724,53.6443826],[23.7433774,53.6437103],[23.740448,53.6426349],[23.7411923,53.6415463],[23.741166,53.6410439],[23.7404642,53.6400149],[23.7403056,53.6393746],[23.7409231,53.6384873],[23.7451755,53.6366233],[23.7416338,53.6339082],[23.7431229,53.631938],[23.7446532,53.6323059],[23.7450944,53.631799],[23.7458665,53.6319053],[23.7461482,53.6315369],[23.7532863,53.6334415],[23.7550901,53.6340962],[23.7560438,53.634636],[23.7589496,53.6367667],[23.7626935,53.6383309],[23.7678881,53.6410427],[23.7723425,53.6438257],[23.7730031,53.6434957],[23.7683165,53.640754],[23.7693589,53.6401273],[23.7689929,53.6396754],[23.7705243,53.6386704],[23.7718976,53.6384371],[23.7747233,53.6382163],[23.7760172,53.6377857],[23.7772228,53.6371323],[23.777939,53.6362191],[23.7780862,53.6354745],[23.7777638,53.6336404],[23.7779488,53.6322982],[23.7745232,53.6290102],[23.7685442,53.6167789],[23.7688935,53.6159949],[23.7733426,53.6152099],[23.7767991,53.6146642],[23.7792618,53.6144044],[23.7823874,53.610121],[23.7902112,53.6064312],[23.8068391,53.6028504],[23.8113299,53.6008705],[23.8170296,53.5996077],[23.8182198,53.5991401],[23.8189955,53.5990636],[23.8203889,53.6080855],[23.8205578,53.6083339],[23.82336,53.6097039],[23.8657109,53.6172715],[23.8708233,53.6181717],[23.8731909,53.6189992],[23.8661298,53.6246381],[23.866448,53.6247761],[23.8696488,53.6241861],[23.8698277,53.626026],[23.8649842,53.6274911],[23.8636674,53.6284371],[23.86215,53.6279221],[23.8601492,53.6269386],[23.85191,53.6340864],[23.8529797,53.6345122],[23.8537777,53.6339322],[23.8548378,53.6340743],[23.8550876,53.6334903],[23.8585344,53.6339396],[23.8596451,53.6331948],[23.8616014,53.6342041],[23.8614045,53.635012],[23.8610605,53.6352531],[23.8757794,53.6417964],[23.8734066,53.6440127],[23.8836245,53.6486564],[23.8848894,53.6496351],[23.8856531,53.6506178],[23.886748,53.6505168],[23.8876476,53.653165],[23.8892877,53.6530647],[23.8901783,53.6534313],[23.8913666,53.6544797],[23.894694,53.6563862],[23.8977939,53.6571199],[23.8976536,53.6576344],[23.899766,53.6571662],[23.9001701,53.6569575],[23.9018098,53.6568136],[23.9036637,53.6570177],[23.9051705,53.6576646],[23.9057874,53.6576897],[23.9067883,53.6587792],[23.9091102,53.660944],[23.9133896,53.6655013],[23.922102,53.664598],[23.9223119,53.6650077],[23.9498797,53.6614444],[23.9765751,53.6557632],[23.978895,53.6550551],[23.9819681,53.6641922],[23.9836193,53.6660301],[23.9776711,53.6691396],[23.9721491,53.6711073],[23.9706287,53.672016],[23.9675205,53.6730203],[23.9674398,53.6734667],[23.9660696,53.6736276],[23.9658338,53.6738311],[23.9641028,53.6738413],[23.9627304,53.6747021],[23.9632545,53.6753944],[23.9678124,53.6795278],[23.9678979,53.6870375],[23.9614606,53.6868469],[23.9607954,53.6898965],[23.9578986,53.6892739],[23.9560962,53.6891595],[23.9564191,53.6875122],[23.9554184,53.6874864],[23.9557686,53.6859876],[23.9561956,53.6813113],[23.955938,53.6805188],[23.9549167,53.6784053],[23.9536453,53.6759807],[23.9500236,53.6756186],[23.9498198,53.6749894],[23.9476204,53.6751292],[23.9439726,53.6760825],[23.9425806,53.6765233],[23.9326616,53.681407],[23.9306889,53.6816684],[23.9219619,53.6814187],[23.9177815,53.6826763],[23.9164638,53.6835047],[23.9144398,53.6837495],[23.913846,53.6832506],[23.9132023,53.6830663],[23.9127946,53.681751],[23.915981,53.6811028],[23.9148545,53.6806326],[23.910752,53.681735],[23.9030175,53.6826336],[23.9021236,53.6826387],[23.9020128,53.6823092],[23.8983368,53.6827831],[23.8978674,53.68257],[23.8971541,53.6805998],[23.8920222,53.6812578],[23.8920137,53.6828056],[23.8893896,53.6859601],[23.8888251,53.6897763],[23.887531,53.6931227],[23.8859049,53.6993025],[23.8859418,53.7049328],[23.8863766,53.7079319],[23.8878359,53.7106154],[23.8935092,53.709075],[23.8948921,53.7090193],[23.8969764,53.7091693],[23.89669,53.7107517],[23.8995164,53.7166383],[23.8999509,53.716858],[23.9001386,53.717992],[23.9007354,53.7193139],[23.9028131,53.7215779],[23.8984205,53.7253468],[23.8894093,53.7313663],[23.8915393,53.7390809],[23.8941747,53.7422454],[23.8634793,53.752047],[23.8636865,53.7564313],[23.8606795,53.756516],[23.8591588,53.7562893],[23.8579917,53.755988],[23.8551335,53.7550532],[23.8528413,53.7543829],[23.8506331,53.7534505],[23.8470556,53.7523732],[23.8461187,53.7521882],[23.8438238,53.7519954],[23.8438188,53.752616],[23.8430216,53.7529706],[23.840433,53.7530037],[23.8390336,53.7532471],[23.8394345,53.7547181],[23.8402893,53.7564985],[23.8288366,53.7597785],[23.8244937,53.7538317],[23.8242371,53.752891],[23.8242997,53.751835],[23.8234206,53.746216],[23.8218386,53.7459174],[23.8209176,53.7459742],[23.8182585,53.7458847],[23.8180914,53.745289],[23.8186234,53.7451682],[23.8185044,53.7445827],[23.8200359,53.7440774],[23.819212,53.7430307],[23.8143441,53.7452413],[23.8113642,53.7451166],[23.8057922,53.7470467],[23.8063538,53.7477655],[23.8068795,53.7498337],[23.8056028,53.7501002],[23.8040471,53.7480256],[23.8012263,53.7483613],[23.8005066,53.747315],[23.7997097,53.7458148],[23.7991333,53.7452975],[23.7955952,53.7435148],[23.7952143,53.7429342],[23.7954235,53.7417825],[23.7946486,53.7407163],[23.7925386,53.7388008],[23.7909202,53.7377165],[23.7899186,53.7372882],[23.7879452,53.7368854],[23.7869613,53.7365695],[23.7861705,53.7361016],[23.7841771,53.7345481],[23.783448,53.7341006],[23.7810981,53.7331074]]]},"properties":{"slug":"grodno-city","name":"Гродно","level":"city","regionSlug":"grodno","osmRelationId":130921}},{"type":"Feature","geometry":{"type":"Polygon","coordinates":[[[27.6819822,53.9535259],[27.6808903,53.9531289],[27.6809418,53.9526632],[27.6803756,53.952494],[27.6797427,53.9531906],[27.6789333,53.9529465],[27.6795621,53.9522319],[27.6749959,53.9507852],[27.6746072,53.9508125],[27.6725242,53.9501512],[27.6718322,53.9508754],[27.6724171,53.9515921],[27.6702343,53.9525265],[27.6641829,53.9508307],[27.6640714,53.950274],[27.66478,53.9500164],[27.6625587,53.9492783],[27.6632614,53.9485594],[27.6622282,53.9482363],[27.662732,53.9476138],[27.6645375,53.9469699],[27.6642877,53.946682],[27.6614741,53.9477694],[27.6583308,53.9488093],[27.6399171,53.9554119],[27.6330096,53.9578412],[27.6350133,53.9592054],[27.6333416,53.9600335],[27.6311995,53.9585835],[27.6303714,53.959009],[27.6301666,53.959494],[27.6312637,53.9604568],[27.6324568,53.9610692],[27.6321289,53.9616602],[27.6374156,53.9623043],[27.6399034,53.9631049],[27.6412079,53.9637934],[27.6417353,53.9646509],[27.6418268,53.9665386],[27.6413096,53.9668288],[27.632815,53.967561],[27.6322461,53.9674466],[27.6330205,53.9667521],[27.6331151,53.9663024],[27.6311475,53.9655063],[27.6332743,53.9635172],[27.635411,53.9643092],[27.6357333,53.9640065],[27.6312858,53.9626738],[27.6320887,53.9618581],[27.6284234,53.9615287],[27.6280416,53.9612972],[27.6261757,53.9610257],[27.6255839,53.9615289],[27.625113,53.9615381],[27.6241666,53.9610961],[27.6192145,53.9628364],[27.6146784,53.9643723],[27.6144037,53.9645805],[27.6117789,53.9654512],[27.6017381,53.9690059],[27.5984241,53.9699764],[27.5987068,53.9709006],[27.5977016,53.9710762],[27.5973247,53.970152],[27.5954242,53.9705494],[27.5955135,53.9715281],[27.5951759,53.9715527],[27.5948874,53.9706673],[27.5928327,53.9710485],[27.5895279,53.9713959],[27.587184,53.971716],[27.583042,53.9717897],[27.5791084,53.9716633],[27.5756798,53.971401],[27.5725331,53.971333],[27.568818,53.9710705],[27.5635364,53.9708235],[27.5631271,53.9709021],[27.5594797,53.9706666],[27.5593014,53.9708121],[27.550684,53.9704501],[27.5486489,53.9702388],[27.5478722,53.9702994],[27.5450862,53.9701757],[27.5417969,53.9699086],[27.5385435,53.9698253],[27.5383748,53.9704842],[27.5377349,53.9703508],[27.534528,53.9702415],[27.5316497,53.9699327],[27.5306032,53.9696883],[27.5302365,53.9694065],[27.5264337,53.9692321],[27.5263427,53.9693922],[27.5206622,53.969142],[27.5195695,53.9689976],[27.5188069,53.9690742],[27.514206,53.9688128],[27.5129958,53.9688449],[27.5108841,53.9692444],[27.5091555,53.9693234],[27.507347,53.9692173],[27.5033728,53.9684632],[27.495092,53.9680883],[27.491687,53.9680221],[27.4861289,53.9677294],[27.484357,53.9675514],[27.4799827,53.9673726],[27.4779655,53.9672388],[27.4742087,53.9666895],[27.4702634,53.9659749],[27.4697618,53.9661052],[27.4691771,53.9657089],[27.4648259,53.9642234],[27.4632376,53.9636213],[27.4613613,53.9626945],[27.4583591,53.9609423],[27.4554036,53.9588295],[27.4551077,53.9583202],[27.4544976,53.9580306],[27.4494443,53.9542368],[27.4460868,53.9515812],[27.4445066,53.9513587],[27.4405734,53.9513421],[27.4408174,53.9509446],[27.4418335,53.9502692],[27.4421515,53.9488868],[27.4419291,53.9484997],[27.4388353,53.9461906],[27.4355839,53.945265],[27.4346566,53.9451432],[27.4325531,53.9455658],[27.4332372,53.9446244],[27.4351928,53.9434015],[27.4310148,53.9402384],[27.4310068,53.9400725],[27.4271162,53.9369486],[27.4235376,53.9337618],[27.423562,53.9335652],[27.422489,53.9324948],[27.4192141,53.9289166],[27.4193112,53.9287004],[27.418301,53.9276691],[27.417168,53.9260172],[27.4172586,53.925878],[27.4145751,53.9219759],[27.4135404,53.9202416],[27.4126162,53.9189995],[27.412911,53.9188834],[27.4116225,53.9161168],[27.4113659,53.9161385],[27.4099823,53.9131456],[27.4090388,53.9127258],[27.4046655,53.9118295],[27.4024441,53.911595],[27.4045202,53.9111718],[27.4055391,53.9108396],[27.4080496,53.9097723],[27.4083148,53.90904],[27.4074277,53.9071912],[27.4072249,53.9071647],[27.4067789,53.9056468],[27.406549,53.9039416],[27.4066978,53.9038625],[27.4070232,53.9004235],[27.4083976,53.89741],[27.4085447,53.8973667],[27.4098872,53.8946052],[27.4101206,53.8943644],[27.4114052,53.8916075],[27.410303,53.8911837],[27.4052454,53.8904823],[27.4020323,53.8903242],[27.4026535,53.8908947],[27.4016102,53.8920485],[27.4023937,53.8931404],[27.4027413,53.8940393],[27.4026528,53.8949019],[27.4016604,53.8959792],[27.4014305,53.8966517],[27.4003311,53.8973187],[27.400251,53.8981634],[27.401075,53.8983548],[27.4008276,53.8989781],[27.4012924,53.8998756],[27.4013187,53.901674],[27.401567,53.9020428],[27.4012077,53.9024125],[27.3995984,53.9024109],[27.3972352,53.9018237],[27.3987741,53.9016166],[27.3995171,53.901092],[27.3991248,53.8984439],[27.3999114,53.8982303],[27.399725,53.8974996],[27.3999578,53.8971001],[27.3997557,53.895931],[27.4014531,53.894824],[27.4015275,53.8940671],[27.4013359,53.8933161],[27.4007512,53.8924657],[27.4006868,53.8917576],[27.4012286,53.8910273],[27.4007995,53.89018],[27.3995218,53.8902134],[27.3990905,53.8889943],[27.399475,53.8886831],[27.402108,53.8874371],[27.4022334,53.886512],[27.4031002,53.8865141],[27.4031046,53.8858097],[27.4109196,53.8858222],[27.4124704,53.8867263],[27.4102764,53.8909684],[27.4115706,53.891272],[27.412595,53.8894205],[27.4130639,53.8880668],[27.4140194,53.8864444],[27.4142258,53.8857431],[27.4154884,53.8832961],[27.4160615,53.8818916],[27.4167351,53.8810126],[27.4171494,53.8796825],[27.4155412,53.8794656],[27.4127115,53.8789153],[27.4114557,53.8803701],[27.4114494,53.882054],[27.4085299,53.8820501],[27.4085359,53.8804904],[27.4046333,53.8805367],[27.4044882,53.8816629],[27.3996806,53.8816187],[27.3997754,53.8808173],[27.3998128,53.8762468],[27.3987322,53.8762453],[27.3987384,53.874718],[27.3947856,53.8747123],[27.3947792,53.8762396],[27.3861105,53.8762332],[27.3861168,53.8741105],[27.3845638,53.8738235],[27.383161,53.8730827],[27.3790799,53.8718132],[27.3768728,53.871601],[27.3747217,53.8717961],[27.3774406,53.8697477],[27.3806587,53.8678431],[27.3801038,53.8678549],[27.3825632,53.8663232],[27.3873077,53.8639831],[27.3910827,53.8624234],[27.3946601,53.8605688],[27.399822,53.8605343],[27.3994851,53.8613019],[27.399736,53.8644436],[27.3986072,53.8643227],[27.3966479,53.8643299],[27.3966196,53.8677023],[27.399881,53.8677691],[27.399872,53.8679019],[27.4051725,53.8678853],[27.4105774,53.8679243],[27.4105717,53.86964],[27.4139431,53.8695666],[27.4222341,53.8696052],[27.4228736,53.8678097],[27.4252452,53.8633204],[27.4277978,53.8582433],[27.428955,53.8563241],[27.4306978,53.8542454],[27.4305211,53.8541767],[27.4325911,53.8524025],[27.4350018,53.8505716],[27.437165,53.8491123],[27.4386395,53.8484805],[27.4430674,53.8463229],[27.4452681,53.8455797],[27.4477536,53.8448483],[27.4504545,53.8442576],[27.4530015,53.843801],[27.4573737,53.8435397],[27.4602345,53.8432117],[27.4602615,53.8430282],[27.4619606,53.8428802],[27.463056,53.8429257],[27.4667221,53.8425825],[27.4666136,53.8409374],[27.4641063,53.8385259],[27.4654827,53.8383608],[27.4683103,53.8370197],[27.4676692,53.8363658],[27.4688227,53.8356434],[27.4727736,53.8376578],[27.4735669,53.8374872],[27.4733781,53.8357913],[27.4749756,53.8355605],[27.4755848,53.8368485],[27.4778274,53.8362417],[27.4785466,53.8374198],[27.480201,53.839686],[27.4803165,53.8405254],[27.481594,53.8404229],[27.481904,53.8408016],[27.48284,53.8405354],[27.4924101,53.839684],[27.4928399,53.8395029],[27.4991264,53.8389373],[27.5015387,53.8379826],[27.5031634,53.8378088],[27.5069496,53.8381197],[27.5147613,53.8372366],[27.514881,53.8372628],[27.5296113,53.8356012],[27.5330636,53.8332589],[27.5336526,53.8330086],[27.5342309,53.8335733],[27.5362243,53.8345629],[27.5390449,53.8345585],[27.5538414,53.8328217],[27.5562361,53.8326647],[27.5636871,53.8327149],[27.5645444,53.8326701],[27.5703256,53.8328938],[27.5743283,53.8326351],[27.5752866,53.8323953],[27.5782722,53.8268917],[27.5792571,53.8254884],[27.5799113,53.8243286],[27.5778843,53.8238248],[27.5732071,53.8241952],[27.5719594,53.8240667],[27.5702391,53.8241101],[27.5707767,53.822921],[27.5718565,53.8221878],[27.5726993,53.8212519],[27.5745665,53.8180614],[27.5724517,53.8177167],[27.5710354,53.8173324],[27.5707851,53.8168494],[27.5710885,53.8163721],[27.5745135,53.8169995],[27.5761693,53.8140244],[27.580791,53.8069866],[27.5817534,53.8067875],[27.5845398,53.8023416],[27.5854864,53.8010654],[27.5864032,53.8004778],[27.5868224,53.8012806],[27.586944,53.8023281],[27.587316,53.802919],[27.5908338,53.803701],[27.5931024,53.800016],[27.588003,53.7988209],[27.5885434,53.7981157],[27.5879939,53.7968795],[27.5898642,53.793847],[27.5962173,53.7951595],[27.5947273,53.79785],[27.5988471,53.7987499],[27.5987881,53.7996719],[27.594319,53.7987436],[27.5935418,53.7999084],[27.5995676,53.8012658],[27.5988336,53.8023372],[27.5972786,53.8048668],[27.5987104,53.805144],[27.5990601,53.8057626],[27.598182,53.8060903],[27.5966906,53.8064261],[27.5974631,53.8082285],[27.5957036,53.8097331],[27.5951779,53.810563],[27.5942981,53.8108417],[27.5934291,53.812248],[27.5949049,53.8135771],[27.5930908,53.8156227],[27.5916048,53.8166146],[27.5927009,53.823897],[27.5918564,53.8250913],[27.5886491,53.825963],[27.5830131,53.8252491],[27.5811056,53.8249044],[27.5805439,53.824265],[27.5799263,53.8251368],[27.5800188,53.8254553],[27.5777248,53.8289001],[27.5766019,53.8307638],[27.5760196,53.8323347],[27.5783105,53.8327677],[27.5796115,53.8328622],[27.5915801,53.8329448],[27.6004822,53.8330372],[27.600339,53.8327672],[27.6004388,53.8314128],[27.6007467,53.8308502],[27.6014124,53.8304155],[27.6028624,53.830105],[27.609488,53.8302212],[27.6088979,53.8304415],[27.6029794,53.8303766],[27.6021071,53.8305387],[27.6011308,53.8312878],[27.6009967,53.832744],[27.6016667,53.8330844],[27.6079232,53.833079],[27.60862,53.8331835],[27.6198585,53.8332458],[27.627609,53.8333731],[27.6343077,53.833325],[27.6387285,53.8334035],[27.6435823,53.8335931],[27.6459949,53.8338982],[27.6488306,53.8343605],[27.6518542,53.8351463],[27.6550345,53.8361078],[27.6584028,53.8374852],[27.6609878,53.8387517],[27.6642151,53.8412106],[27.6667961,53.8438018],[27.6678356,53.8444369],[27.6694454,53.8433606],[27.6709858,53.8420011],[27.674061,53.8382471],[27.6763772,53.8375705],[27.6773471,53.8361539],[27.6786234,53.8349668],[27.6790945,53.8340437],[27.6789687,53.8331321],[27.6776575,53.8320345],[27.6756971,53.8307117],[27.6742241,53.8302484],[27.6728371,53.8301449],[27.6718316,53.8298625],[27.6688664,53.8292388],[27.6643298,53.8273217],[27.6623845,53.8264052],[27.6612946,53.8260157],[27.6622247,53.8253069],[27.6604219,53.8242404],[27.6594334,53.8230388],[27.6588195,53.8219409],[27.6583566,53.820517],[27.657752,53.8190916],[27.6566508,53.8177457],[27.6563544,53.8170802],[27.6551308,53.8156556],[27.6566301,53.8154432],[27.6571632,53.8165322],[27.6585211,53.8184843],[27.6587014,53.8189904],[27.6593918,53.8196757],[27.6602861,53.8211299],[27.6606504,53.8220067],[27.6616974,53.8235925],[27.6630691,53.8247456],[27.6637793,53.8251511],[27.6659355,53.8255648],[27.6672584,53.8263871],[27.6691796,53.8252294],[27.6656665,53.8231642],[27.6666333,53.8224556],[27.6732495,53.8184199],[27.6761743,53.8202317],[27.6797698,53.8191601],[27.679862,53.8185886],[27.6765594,53.8156159],[27.6739912,53.8134041],[27.6716126,53.811009],[27.6702468,53.8088484],[27.6723409,53.8082797],[27.6728544,53.8083877],[27.6749882,53.8077478],[27.681896,53.8058539],[27.6880818,53.8048377],[27.6894154,53.8048461],[27.6909374,53.8051633],[27.6937173,53.8059376],[27.6949423,53.8064593],[27.706443,53.8145125],[27.7075435,53.8157714],[27.7084259,53.8155182],[27.7129791,53.8178178],[27.7103062,53.8197968],[27.7090168,53.8206392],[27.7081571,53.8209911],[27.7069504,53.8221147],[27.7068945,53.8237686],[27.7061421,53.8251009],[27.7001302,53.8293873],[27.6977221,53.8310548],[27.7025345,53.8298251],[27.7028937,53.8298679],[27.7054986,53.8293591],[27.7076341,53.8296443],[27.7081101,53.8294754],[27.7094217,53.8295593],[27.7103526,53.828411],[27.7127171,53.8282672],[27.7140023,53.8278751],[27.7137132,53.8285706],[27.7127652,53.829634],[27.7149871,53.8309246],[27.7146113,53.8323063],[27.7140374,53.8327109],[27.7141226,53.8340533],[27.7139633,53.8350161],[27.7167499,53.8360679],[27.7173297,53.8361204],[27.7175739,53.8374838],[27.7171692,53.8376717],[27.7173009,53.8385393],[27.7187241,53.8378359],[27.7210731,53.8380146],[27.7231108,53.8394142],[27.7276317,53.8371624],[27.73621,53.8330131],[27.7556647,53.8234884],[27.7571339,53.8233698],[27.7611827,53.8241381],[27.7613512,53.8239995],[27.769757,53.8254668],[27.7706515,53.8249592],[27.7716684,53.8252314],[27.7728719,53.8242216],[27.7737686,53.8245768],[27.7820163,53.8245728],[27.7821979,53.8280673],[27.7821714,53.8291696],[27.7824116,53.8326087],[27.7825305,53.8356414],[27.7813495,53.8373149],[27.7824924,53.8389863],[27.7839429,53.8395659],[27.7900868,53.8392609],[27.797059,53.8390383],[27.7954991,53.8404171],[27.7992867,53.8410153],[27.8055127,53.8431544],[27.808292,53.8433636],[27.8096215,53.8418827],[27.8159196,53.8446731],[27.8184363,53.8548431],[27.8114698,53.8548981],[27.8100663,53.8563478],[27.8040602,53.857348],[27.8038846,53.8575989],[27.8023778,53.8577379],[27.7978753,53.8590209],[27.798187,53.8592939],[27.7953646,53.8599958],[27.7960406,53.8609702],[27.7962447,53.8619826],[27.7957942,53.8637731],[27.7938838,53.8656841],[27.7853018,53.8677846],[27.7830162,53.8656843],[27.7712706,53.865716],[27.7666045,53.86528],[27.7606678,53.8646225],[27.7514843,53.8629621],[27.7542732,53.8671155],[27.7542958,53.8693996],[27.7661414,53.8731635],[27.7744556,53.8755785],[27.8037779,53.8737898],[27.8288841,53.8722616],[27.834522,53.8738368],[27.8380465,53.8743993],[27.845492,53.875163],[27.8457286,53.8750646],[27.8490114,53.8757587],[27.8490752,53.8992799],[27.8411286,53.8992821],[27.8407892,53.9017802],[27.8407658,53.9025231],[27.8342188,53.9016089],[27.831003,53.9022262],[27.82956,53.903445],[27.826163,53.9010639],[27.8226236,53.8993286],[27.8206175,53.9003611],[27.8178338,53.9004883],[27.8066551,53.9005471],[27.792806,53.9005588],[27.7881982,53.8998622],[27.7861872,53.8999021],[27.785929,53.8988065],[27.7755178,53.898855],[27.7755354,53.9015225],[27.7704112,53.9034938],[27.7463883,53.9127772],[27.7471429,53.9135097],[27.7460927,53.9138927],[27.7451378,53.9136716],[27.7487453,53.9172058],[27.752225,53.9192949],[27.7466382,53.9205727],[27.7427883,53.9213854],[27.74914,53.9298963],[27.7266159,53.9250839],[27.7188974,53.9267036],[27.7192095,53.927135],[27.7191281,53.9282294],[27.7178257,53.9295873],[27.7161977,53.93041],[27.7157861,53.9308527],[27.7181722,53.9311287],[27.7184682,53.9309306],[27.7200353,53.9308627],[27.721343,53.9309538],[27.724392,53.9313291],[27.7252354,53.9311427],[27.7300102,53.9323602],[27.7296685,53.9328374],[27.7328781,53.9333206],[27.7317692,53.935333],[27.7343415,53.9356058],[27.7352797,53.9354609],[27.732789,53.9405241],[27.7348028,53.9413141],[27.740326,53.9408007],[27.7421402,53.9405252],[27.743932,53.9413909],[27.7447023,53.9409788],[27.7451738,53.941036],[27.7428779,53.9478514],[27.7414496,53.9474968],[27.7397475,53.9519552],[27.7438485,53.9517575],[27.746351,53.9539088],[27.7463197,53.9554513],[27.7443493,53.9610878],[27.7435602,53.961429],[27.7413923,53.9617015],[27.7397805,53.9629899],[27.7386546,53.9636982],[27.7352518,53.9619725],[27.7344085,53.962598],[27.7245235,53.9582747],[27.721461,53.9595701],[27.7190346,53.9601246],[27.7061644,53.9612734],[27.6926371,53.9612214],[27.6921613,53.9584384],[27.6907246,53.9587119],[27.6881222,53.9583858],[27.6862366,53.9591057],[27.6851743,53.9580355],[27.6860439,53.9576132],[27.6852789,53.9571666],[27.6859596,53.9566207],[27.6864897,53.9565108],[27.6879401,53.9576986],[27.6897691,53.9574648],[27.6905179,53.9553322],[27.6819822,53.9535259]],[[27.4695075,53.8379014],[27.4686753,53.8378416],[27.4660617,53.8382849],[27.4660126,53.8389148],[27.4663586,53.839262],[27.4696827,53.8402051],[27.4697655,53.8403809],[27.4723609,53.841012],[27.4725554,53.8409468],[27.4746536,53.8414807],[27.477459,53.8411785],[27.4762863,53.8405741],[27.4740211,53.8391204],[27.4718471,53.83935],[27.4707381,53.8391458],[27.469773,53.8385153],[27.4695075,53.8379014]],[[27.4187101,53.8763481],[27.4202876,53.8736599],[27.4210231,53.8720503],[27.4198298,53.8721567],[27.4109381,53.8721138],[27.41093,53.8725866],[27.4088045,53.8725702],[27.4087766,53.8739958],[27.4139426,53.8739698],[27.4139054,53.8763166],[27.4126069,53.876332],[27.4125978,53.8768614],[27.415425,53.8771466],[27.4165515,53.8767714],[27.4185059,53.8768752],[27.4187101,53.8763481]],[[27.6977402,53.8155565],[27.7010705,53.8170978],[27.7028737,53.8158175],[27.7037121,53.8162168],[27.704571,53.8156461],[27.7056236,53.816128],[27.7062743,53.815675],[27.7045056,53.8148851],[27.7052164,53.8143657],[27.7043346,53.8136681],[27.6990714,53.8100019],[27.6954987,53.8073855],[27.6932886,53.8063338],[27.6893189,53.8052124],[27.6885572,53.8051934],[27.6834395,53.8057953],[27.6805642,53.8064098],[27.6749637,53.8079493],[27.6732149,53.8086019],[27.6725726,53.80932],[27.6723888,53.81023],[27.6748467,53.812611],[27.6770322,53.8118016],[27.677039,53.8114174],[27.6777151,53.8111257],[27.6795509,53.8110097],[27.6801608,53.810837],[27.6821292,53.810619],[27.6834153,53.8116393],[27.6891943,53.809528],[27.6893661,53.8092173],[27.6927808,53.8125905],[27.6936492,53.8132635],[27.6954355,53.81441],[27.6977402,53.8155565]],[[27.7347393,53.8917219],[27.7374393,53.8937472],[27.7429466,53.8950949],[27.7460375,53.8971683],[27.7621421,53.8968139],[27.7629244,53.8959093],[27.7643299,53.8956122],[27.7670978,53.8948219],[27.7711965,53.8945056],[27.7779122,53.8911607],[27.77835,53.8903692],[27.7781894,53.8896954],[27.7769991,53.889156],[27.7641781,53.887298],[27.7634468,53.8850698],[27.7635679,53.8841899],[27.7645538,53.8829849],[27.7652078,53.8816569],[27.7603755,53.881056],[27.7594776,53.8811071],[27.7584381,53.8818153],[27.7555092,53.8841933],[27.7545866,53.8845664],[27.7517235,53.8845857],[27.7500868,53.8842468],[27.7491539,53.8845861],[27.7485444,53.8850299],[27.7461545,53.8856166],[27.7445227,53.8858259],[27.7390399,53.8855916],[27.7373611,53.8861238],[27.7301479,53.88612],[27.7303077,53.8874751],[27.7280541,53.8874891],[27.7280969,53.8884627],[27.7315198,53.8884058],[27.7347393,53.8917219]],[[27.7363638,53.86492],[27.7306903,53.8480561],[27.7306571,53.8475257],[27.7301304,53.8448918],[27.7319269,53.843788],[27.7297112,53.841423],[27.7278768,53.8398231],[27.7264559,53.838365],[27.7230162,53.8399161],[27.7167636,53.8430756],[27.7166438,53.8430622],[27.7101101,53.8462361],[27.7107875,53.8466094],[27.710845,53.8472223],[27.7097372,53.8477383],[27.7070655,53.8478479],[27.7066771,53.8480071],[27.6980183,53.8523004],[27.6896191,53.8562964],[27.6886104,53.8568457],[27.6855165,53.8583346],[27.6849101,53.858933],[27.6843643,53.8610759],[27.6843423,53.8617399],[27.6865836,53.8641574],[27.6879676,53.8652644],[27.6892021,53.866542],[27.6902212,53.8678646],[27.6908546,53.8689591],[27.6911654,53.8690853],[27.6917788,53.8700979],[27.6934405,53.8723061],[27.6939557,53.8727482],[27.6958687,53.8736768],[27.6954449,53.8740896],[27.6957427,53.8745363],[27.6970793,53.8746091],[27.6971779,53.8741296],[27.6980111,53.8735772],[27.6998897,53.8740746],[27.7039556,53.8752551],[27.7044274,53.8742839],[27.7099429,53.8760261],[27.7102168,53.875717],[27.7112454,53.8760219],[27.7119348,53.8753299],[27.7122933,53.8753355],[27.7110449,53.8728295],[27.7116796,53.8726912],[27.7135457,53.8732612],[27.7142246,53.8729432],[27.714977,53.8731786],[27.7179866,53.8698811],[27.7182019,53.869887],[27.7287842,53.8733684],[27.7356361,53.8661658],[27.7353368,53.8660722],[27.7363638,53.86492]]]},"properties":{"slug":"minsk","name":"Минск","level":"city","regionSlug":"minsk-city","osmRelationId":59195,"citySlug":"minsk","hasDistricts":true}},{"type":"Feature","geometry":{"type":"Polygon","coordinates":[[[30.2629887,53.8872115],[30.2633279,53.8871707],[30.2543327,53.8763997],[30.2557305,53.8758932],[30.2514183,53.8693413],[30.2521645,53.8691128],[30.25117,53.8675602],[30.2546246,53.8661971],[30.2528606,53.8643846],[30.2582898,53.8634441],[30.2631836,53.8739695],[30.2643855,53.8740438],[30.2652509,53.8761408],[30.2740225,53.8716455],[30.2748921,53.8723008],[30.2758955,53.8728249],[30.2759606,53.8730926],[30.2741747,53.8736464],[30.274146,53.8739442],[30.2760966,53.8745239],[30.2786579,53.8746964],[30.2812522,53.8747911],[30.2821188,53.8745608],[30.2839917,53.8762829],[30.2894971,53.872702],[30.2879226,53.8717215],[30.2831268,53.8685317],[30.2884965,53.8662971],[30.2912944,53.8649914],[30.2860406,53.8606351],[30.2845816,53.8572132],[30.2849806,53.8552262],[30.2842406,53.8516902],[30.2845796,53.8481842],[30.2824306,53.8462082],[30.2822206,53.8433432],[30.2827836,53.8419742],[30.2826226,53.8383193],[30.2816658,53.8347524],[30.2834838,53.8337371],[30.2865278,53.8329571],[30.2913131,53.8335616],[30.2925555,53.8341238],[30.2945596,53.8351913],[30.2963716,53.8357253],[30.3001306,53.8420653],[30.3011506,53.8454342],[30.3064888,53.8482817],[30.3088945,53.8494636],[30.3114096,53.8499713],[30.3143708,53.8515529],[30.3138845,53.8522286],[30.31731,53.8539048],[30.3219588,53.8509095],[30.3250495,53.8518931],[30.3285685,53.8536145],[30.3305855,53.8527159],[30.3306499,53.8482603],[30.3440824,53.8520703],[30.3446732,53.8489135],[30.345751,53.8484445],[30.346427,53.8487483],[30.3478968,53.8498812],[30.3493365,53.8516233],[30.3534993,53.8518511],[30.353671,53.8507372],[30.3558597,53.8507879],[30.3567609,53.8469904],[30.3552589,53.8461296],[30.3566212,53.8430945],[30.3593601,53.843033],[30.3593874,53.8426307],[30.3609643,53.8426591],[30.3603598,53.8514767],[30.3638798,53.8515771],[30.3638996,53.8568141],[30.3672287,53.856591],[30.3735263,53.8520647],[30.3747711,53.8524147],[30.3770471,53.8510014],[30.3788012,53.8497799],[30.3805223,53.8484223],[30.3814259,53.8474501],[30.3822872,53.847726],[30.3830203,53.8472641],[30.3841198,53.8461861],[30.3862596,53.8450867],[30.3790155,53.841268],[30.3870143,53.835934],[30.3872573,53.8357477],[30.388459,53.8361656],[30.392642,53.8330564],[30.3969642,53.8348609],[30.3987204,53.8355046],[30.4000874,53.8349366],[30.4012264,53.8351536],[30.3966587,53.8397843],[30.4008779,53.8415339],[30.4049526,53.8429045],[30.4085526,53.8443622],[30.419045,53.8487006],[30.4195185,53.8508768],[30.4209138,53.8514265],[30.4225512,53.8514671],[30.4240291,53.8519489],[30.4277816,53.8537194],[30.4310392,53.8553513],[30.4310618,53.8555688],[30.4354856,53.8551844],[30.4362029,53.8519815],[30.4408606,53.8502463],[30.4417677,53.8502961],[30.4440299,53.8534494],[30.4531542,53.8551455],[30.4546582,53.8559242],[30.456906,53.8587455],[30.4585249,53.8601245],[30.4635483,53.856621],[30.4662305,53.8570386],[30.4670083,53.8569026],[30.4674053,53.8572696],[30.4688376,53.8571272],[30.4690361,53.8574626],[30.4712141,53.8569785],[30.4729233,53.8566894],[30.472621,53.8573048],[30.4738304,53.8591338],[30.4600339,53.8625514],[30.4447675,53.8669786],[30.4446863,53.8675619],[30.4413021,53.8684969],[30.4391563,53.8693699],[30.4398,53.8696356],[30.4398322,53.8704073],[30.4391241,53.8703757],[30.4386735,53.870673],[30.4381044,53.8698789],[30.4337811,53.8717231],[30.4347913,53.8733703],[30.4353004,53.8748022],[30.4256383,53.8765774],[30.4240135,53.8858165],[30.4308553,53.8870504],[30.4293756,53.8895807],[30.4229093,53.8899876],[30.4120422,53.8893366],[30.4058681,53.8887638],[30.3999291,53.8885662],[30.3951464,53.8894948],[30.3925824,53.8893553],[30.3916168,53.888546],[30.3898787,53.8884828],[30.3896427,53.8879516],[30.3854584,53.8878504],[30.3848342,53.8891591],[30.3825764,53.8945982],[30.3824829,53.8953136],[30.3848211,53.8958162],[30.3848521,53.8971859],[30.3816462,53.8976743],[30.3805592,53.9000197],[30.3825448,53.9033363],[30.3863604,53.9041798],[30.3846817,53.9069261],[30.382551,53.910553],[30.380798,53.915393],[30.377145,53.917766],[30.376854,53.9185017],[30.3729678,53.9205154],[30.3801451,53.9241826],[30.3776994,53.9261443],[30.3789193,53.9268014],[30.3710024,53.9313942],[30.3677036,53.9338448],[30.3683488,53.9342391],[30.3698124,53.9335215],[30.3723439,53.9351834],[30.3719938,53.9354246],[30.3727502,53.9360594],[30.3727889,53.9364842],[30.3712732,53.9375913],[30.369612,53.9373794],[30.3692901,53.9375088],[30.3670375,53.9369963],[30.3644842,53.9379418],[30.3637907,53.9386714],[30.3660743,53.9402547],[30.364372,53.9410004],[30.3661434,53.9426642],[30.3675957,53.942254],[30.3765582,53.9487226],[30.3727539,53.9505598],[30.3719463,53.9525778],[30.3705746,53.953318],[30.3642536,53.9557361],[30.3638763,53.9575124],[30.3612532,53.9603904],[30.3594393,53.9617093],[30.3438019,53.9705194],[30.3397401,53.9676772],[30.3390321,53.9681449],[30.337941,53.9675722],[30.338701,53.9669216],[30.3327579,53.9629601],[30.3393146,53.9594141],[30.33538,53.9579684],[30.3334682,53.957181],[30.3313921,53.9560029],[30.325903,53.9537985],[30.3255967,53.9568625],[30.3249914,53.9589282],[30.3250276,53.9600515],[30.3239905,53.9631954],[30.3194041,53.9623772],[30.3184229,53.9641202],[30.3097374,53.9640727],[30.3068006,53.9600901],[30.3016632,53.9538282],[30.3188612,53.9478691],[30.3147694,53.9452855],[30.3119259,53.9461281],[30.3021733,53.9418887],[30.301641,53.9424024],[30.2975941,53.941198],[30.2956453,53.9429995],[30.2939093,53.9439441],[30.2928471,53.9431547],[30.2909477,53.9446991],[30.2882177,53.9443198],[30.2861428,53.943671],[30.2856274,53.9428475],[30.287126,53.9423526],[30.2888737,53.940927],[30.2920526,53.9408084],[30.2915983,53.9379532],[30.2870894,53.9376491],[30.2850171,53.9381217],[30.2817491,53.9382507],[30.2799005,53.9385612],[30.278891,53.9386229],[30.2776639,53.9383251],[30.2771685,53.938426],[30.2761465,53.9377569],[30.2755516,53.937835],[30.2738185,53.9373691],[30.2719311,53.9364473],[30.2710429,53.9361282],[30.2683307,53.9354276],[30.2646339,53.9371433],[30.2619517,53.9350274],[30.256716,53.9373264],[30.2538836,53.9350211],[30.2326027,53.9446939],[30.2259627,53.9406347],[30.2266288,53.9402435],[30.2273986,53.9407045],[30.228458,53.9401424],[30.2277508,53.9396438],[30.2299153,53.9386038],[30.2450148,53.9310089],[30.2428823,53.9289342],[30.237207,53.9251648],[30.2343262,53.9225355],[30.2346757,53.9215441],[30.2413963,53.9179553],[30.2436485,53.9169009],[30.2447466,53.9165376],[30.2457597,53.9163832],[30.248155,53.9154269],[30.2466286,53.9130313],[30.2508637,53.9113118],[30.2512353,53.9116108],[30.2530642,53.9108656],[30.2573425,53.9127509],[30.2601165,53.9107965],[30.2604137,53.9099794],[30.2562479,53.9094477],[30.2588186,53.9081625],[30.254505,53.9060052],[30.2613254,53.9030273],[30.2564911,53.9006243],[30.2582102,53.8998512],[30.259569,53.900486],[30.2626956,53.8992243],[30.2629147,53.8989805],[30.2648205,53.8984014],[30.2644139,53.8980393],[30.2649539,53.8976233],[30.2642901,53.89696],[30.2645133,53.8967699],[30.2634735,53.895593],[30.2613376,53.8929908],[30.2624255,53.8926274],[30.2626308,53.8921933],[30.2652679,53.8930882],[30.2663845,53.8928945],[30.2661567,53.8923167],[30.2671733,53.8920087],[30.2629887,53.8872115]]]},"properties":{"slug":"mogilev-city","name":"Могилёв","level":"city","regionSlug":"mogilev","osmRelationId":62145}},{"type":"Feature","geometry":{"type":"Polygon","coordinates":[[[26.8305328,54.3387582],[26.8258919,54.3332215],[26.8244825,54.3284774],[26.8283287,54.3246524],[26.8285631,54.3241912],[26.8279488,54.3230264],[26.8272252,54.3226653],[26.8270529,54.3222792],[26.8245388,54.321806],[26.8259359,54.3197183],[26.8265754,54.3183141],[26.8161881,54.3178339],[26.8156333,54.318507],[26.8140577,54.3186882],[26.8139912,54.3178727],[26.8085987,54.3184422],[26.8042936,54.3183775],[26.8026515,54.3181057],[26.8003658,54.3172644],[26.797398,54.3154395],[26.7966364,54.3156222],[26.7960525,54.315058],[26.7977334,54.3147479],[26.7957362,54.3133416],[26.7918031,54.3103584],[26.7904623,54.3092514],[26.7893868,54.3076365],[26.7890666,54.3066465],[26.7894879,54.3048223],[26.7904417,54.303596],[26.7897059,54.3034162],[26.7902513,54.3028129],[26.7911943,54.3021234],[26.7934894,54.3009698],[26.795046,54.3004196],[26.7961026,54.3003533],[26.799318,54.3005853],[26.8037264,54.3003135],[26.8066805,54.2998427],[26.8077599,54.2995245],[26.810055,54.2992062],[26.8096223,54.2985565],[26.8109745,54.2983306],[26.8113352,54.2989263],[26.8121001,54.2987952],[26.8108049,54.2957981],[26.8126,54.2955263],[26.8175765,54.2943526],[26.8226494,54.2930186],[26.823141,54.2925915],[26.824994,54.2920963],[26.8270573,54.2923491],[26.8271631,54.2913399],[26.8278656,54.291397],[26.8294702,54.2859316],[26.8323332,54.2804188],[26.8329904,54.2795784],[26.8368789,54.2804855],[26.8423004,54.2823785],[26.84407,54.2842029],[26.8505401,54.2871247],[26.8508326,54.28748],[26.853118,54.2877983],[26.8537301,54.2887721],[26.854409,54.2890787],[26.8632824,54.2887055],[26.8737173,54.286761],[26.8748331,54.2888652],[26.876728,54.2884769],[26.8801117,54.2882765],[26.8849826,54.2889529],[26.8897318,54.2900215],[26.8942952,54.2845815],[26.8991884,54.2794209],[26.9002927,54.2785366],[26.9020377,54.2793316],[26.9039052,54.2798214],[26.9061554,54.2800236],[26.9088351,54.2798311],[26.9100143,54.280849],[26.9136525,54.2821552],[26.905303,54.2871117],[26.9059433,54.2875655],[26.8994043,54.29126],[26.9038561,54.2948897],[26.9065311,54.2965913],[26.906965,54.2972647],[26.9081572,54.2978971],[26.9142619,54.3035249],[26.9047693,54.3072267],[26.9080236,54.3101987],[26.9089904,54.3099893],[26.9102165,54.311141],[26.9177996,54.3103248],[26.9182466,54.3103761],[26.9215603,54.3098079],[26.9227197,54.3143092],[26.9245822,54.3143982],[26.9248262,54.3152362],[26.9242595,54.3154827],[26.9244653,54.3160459],[26.9229227,54.3162166],[26.9241833,54.3209248],[26.9231518,54.3211482],[26.9206469,54.3193893],[26.9165622,54.3181226],[26.9157795,54.3187224],[26.9069164,54.3199469],[26.9003635,54.3208807],[26.9016514,54.3262216],[26.8967923,54.3282682],[26.8939623,54.3295509],[26.8877181,54.3321459],[26.8834804,54.3339802],[26.8826307,54.3341366],[26.8799435,54.3340513],[26.8729264,54.3339279],[26.8703952,54.3339469],[26.8691717,54.3338625],[26.8686882,54.3335509],[26.8668834,54.3331437],[26.8612103,54.3314642],[26.8580488,54.3307235],[26.8570447,54.3308433],[26.8553866,54.3307153],[26.8529348,54.3315758],[26.8502262,54.3326296],[26.847597,54.3335391],[26.8408349,54.3356548],[26.8354317,54.3372639],[26.8305328,54.3387582]]]},"properties":{"slug":"molodechno","name":"Молодечно","level":"city","regionSlug":"minsk-region","osmRelationId":6722552}},{"type":"Feature","geometry":{"type":"Polygon","coordinates":[[[27.5031793,52.7612611],[27.5046853,52.7615996],[27.5071815,52.7619007],[27.5080665,52.763009],[27.5085212,52.7632475],[27.5101508,52.763682],[27.512458,52.7641352],[27.5149497,52.7641501],[27.5159427,52.7644951],[27.519613,52.7640922],[27.5213031,52.7636949],[27.5188615,52.7629655],[27.5188697,52.7623049],[27.5181019,52.7620368],[27.5177502,52.7616009],[27.5180077,52.7611342],[27.5189,52.7611782],[27.5191241,52.7606008],[27.5207735,52.7606605],[27.5207048,52.7611978],[27.5216114,52.761634],[27.5223766,52.76346],[27.524403,52.7629576],[27.5244948,52.7634946],[27.5253387,52.7642189],[27.5257426,52.7643225],[27.5275344,52.7654116],[27.5295246,52.7661485],[27.5299008,52.7667909],[27.5332977,52.7682016],[27.5337433,52.7680987],[27.5346822,52.7688426],[27.5359298,52.7694079],[27.5371428,52.7694682],[27.5368604,52.770127],[27.5393928,52.7721741],[27.5436007,52.7731436],[27.5458948,52.7735684],[27.5466198,52.7738322],[27.5477768,52.7738165],[27.5505376,52.7746972],[27.5512618,52.7744601],[27.552909,52.7746888],[27.5535187,52.7749955],[27.5541621,52.7759587],[27.5533888,52.77682],[27.5532377,52.7774348],[27.5526613,52.7777121],[27.5521402,52.7792493],[27.5540737,52.7804443],[27.5556871,52.7803554],[27.5568951,52.7801344],[27.5586939,52.7802156],[27.5600248,52.782075],[27.5601342,52.7828747],[27.5588686,52.7844064],[27.5588032,52.7847648],[27.5592255,52.7863727],[27.559096,52.7876503],[27.5588077,52.7884331],[27.5575216,52.7890686],[27.5569954,52.7899231],[27.5581546,52.7930095],[27.556549,52.7946252],[27.5552392,52.7956596],[27.5633869,52.794373],[27.5695205,52.7993315],[27.569755,52.8000696],[27.5706921,52.8009078],[27.5707897,52.8038727],[27.5702222,52.8066851],[27.5728197,52.8090249],[27.5745939,52.8110239],[27.5756682,52.8118247],[27.5753087,52.8181042],[27.5786411,52.8194353],[27.5805004,52.8178014],[27.5819166,52.8180582],[27.5823812,52.8187448],[27.5804747,52.8204164],[27.5904054,52.824094],[27.59175,52.823732],[27.5902124,52.8231103],[27.5926042,52.820914],[27.6009403,52.824107],[27.5999983,52.8249563],[27.5971529,52.8238711],[27.5969298,52.8239242],[27.5948186,52.8258874],[27.5963587,52.8264748],[27.593375,52.8291197],[27.5778726,52.8232924],[27.5708241,52.8207055],[27.5656721,52.8202439],[27.5597863,52.8225831],[27.5570397,52.8204941],[27.5553338,52.8195423],[27.5500187,52.8195747],[27.5502558,52.8166654],[27.5482978,52.816358],[27.5470672,52.8156882],[27.5512163,52.8112863],[27.5490523,52.8105052],[27.5505286,52.808845],[27.5450654,52.8062669],[27.5447221,52.8059168],[27.5438535,52.8043277],[27.5429903,52.8021401],[27.5402608,52.8009938],[27.5395735,52.8001192],[27.5347448,52.7991136],[27.5338505,52.8003654],[27.5331397,52.800169],[27.5325516,52.8009728],[27.5313422,52.8006976],[27.529619,52.8005519],[27.5276184,52.7999126],[27.5263921,52.8013099],[27.5246057,52.8007062],[27.5152557,52.7978362],[27.5146525,52.797819],[27.5160329,52.7961325],[27.5142894,52.7957415],[27.514907,52.7949337],[27.5144226,52.7948723],[27.5145863,52.7942147],[27.513212,52.7941164],[27.5133435,52.7933809],[27.5128889,52.7932888],[27.5130692,52.792607],[27.5128574,52.7920455],[27.5122228,52.7920292],[27.5121553,52.7930281],[27.5077573,52.7930244],[27.5076591,52.7915415],[27.506414,52.7914751],[27.5064943,52.7926723],[27.5049514,52.7927291],[27.5045243,52.7931882],[27.5034588,52.7932516],[27.5036234,52.7939255],[27.5042817,52.7944278],[27.5060143,52.7945605],[27.5058574,52.7951069],[27.5061983,52.7953567],[27.5040498,52.7953973],[27.5024861,52.7956398],[27.50247,52.7948134],[27.5020118,52.7932295],[27.5019963,52.7914931],[27.4861327,52.7916564],[27.4857416,52.7814549],[27.4932199,52.7813553],[27.5020364,52.7811997],[27.5021416,52.781055],[27.5022265,52.7790542],[27.4991882,52.7756078],[27.4997711,52.7753196],[27.5003981,52.7746794],[27.5010309,52.7714624],[27.5014776,52.7712411],[27.5015876,52.7697269],[27.5005858,52.7695382],[27.5007044,52.7688462],[27.5022761,52.7690366],[27.5025637,52.7682511],[27.5040194,52.7680604],[27.5041971,52.7665573],[27.5043772,52.7637618],[27.5031309,52.7630856],[27.5033914,52.7627519],[27.5031793,52.7612611]]]},"properties":{"slug":"soligorsk","name":"Солигорск","level":"city","regionSlug":"minsk-region","osmRelationId":6722606}}]}