{"type":"FeatureCollection","features":[{"type":"Feature","geometry":{"type":"Polygon","coordinates":[[[27.6005519,53.8809126],[27.6005043,53.8791784],[27.6011295,53.8788003],[27.6019291,53.878062],[27.6031353,53.8772335],[27.6037472,53.8765673],[27.6053394,53.8754253],[27.6077109,53.8742869],[27.6106616,53.8721304],[27.611784,53.8709947],[27.6122342,53.8703309],[27.6127578,53.8700194],[27.6142874,53.8695493],[27.6151593,53.8684974],[27.6161432,53.8682781],[27.6166846,53.8679229],[27.6170092,53.8672071],[27.6173541,53.8668231],[27.619361,53.8650827],[27.6196521,53.864612],[27.6195169,53.8642224],[27.6189877,53.8634679],[27.6187943,53.8629658],[27.6183322,53.8623052],[27.6180456,53.86148],[27.6182106,53.8609951],[27.6206271,53.8582744],[27.6220768,53.8568433],[27.6240881,53.8554832],[27.624679,53.8548443],[27.6252317,53.8546262],[27.6268037,53.8545059],[27.6272255,53.8536573],[27.6241672,53.8508066],[27.6192319,53.8449229],[27.6081199,53.8427875],[27.603085,53.8398422],[27.6008803,53.8388198],[27.6006281,53.8379399],[27.5989437,53.8381646],[27.5973666,53.8382573],[27.5964184,53.83822],[27.5963213,53.8377953],[27.6010662,53.8358431],[27.6007348,53.835447],[27.6004822,53.8330372],[27.600339,53.8327672],[27.6004388,53.8314128],[27.6007467,53.8308502],[27.6014124,53.8304155],[27.6020717,53.8301876],[27.6028624,53.830105],[27.609488,53.8302212],[27.6103957,53.8305226],[27.6112089,53.8310335],[27.6108168,53.8312007],[27.6097181,53.8305469],[27.6088979,53.8304415],[27.6029794,53.8303766],[27.6021071,53.8305387],[27.6015058,53.8308721],[27.6011308,53.8312878],[27.6009967,53.832744],[27.6016667,53.8330844],[27.6079232,53.833079],[27.60862,53.8331835],[27.6198585,53.8332458],[27.627609,53.8333731],[27.6343077,53.833325],[27.6387285,53.8334035],[27.6435823,53.8335931],[27.6459949,53.8338982],[27.6488306,53.8343605],[27.6518542,53.8351463],[27.6550345,53.8361078],[27.6566638,53.8367272],[27.6584028,53.8374852],[27.6609878,53.8387517],[27.6642151,53.8412106],[27.6667961,53.8438018],[27.6678356,53.8444369],[27.6694454,53.8433606],[27.6709858,53.8420011],[27.674061,53.8382471],[27.6763772,53.8375705],[27.6773471,53.8361539],[27.6786234,53.8349668],[27.6790945,53.8340437],[27.6789687,53.8331321],[27.6776575,53.8320345],[27.6756971,53.8307117],[27.6742241,53.8302484],[27.6728371,53.8301449],[27.6718316,53.8298625],[27.6688664,53.8292388],[27.6674254,53.8285949],[27.6643298,53.8273217],[27.6623845,53.8264052],[27.6612946,53.8260157],[27.6622247,53.8253069],[27.6604219,53.8242404],[27.6594334,53.8230388],[27.6588195,53.8219409],[27.6583566,53.820517],[27.657752,53.8190916],[27.6566508,53.8177457],[27.6563544,53.8170802],[27.6556586,53.8161475],[27.6551308,53.8156556],[27.6566301,53.8154432],[27.6571632,53.8165322],[27.6585211,53.8184843],[27.6587014,53.8189904],[27.6593918,53.8196757],[27.6602861,53.8211299],[27.6606504,53.8220067],[27.6610906,53.8225394],[27.6616974,53.8235925],[27.6625648,53.8242451],[27.6630691,53.8247456],[27.6637793,53.8251511],[27.6649706,53.8254426],[27.6659355,53.8255648],[27.6672584,53.8263871],[27.6691796,53.8252294],[27.6656665,53.8231642],[27.6666333,53.8224556],[27.6732495,53.8184199],[27.6754628,53.8197333],[27.6761743,53.8202317],[27.6797698,53.8191601],[27.6803258,53.8189267],[27.679862,53.8185886],[27.6765594,53.8156159],[27.6739912,53.8134041],[27.6721369,53.8116009],[27.6716126,53.811009],[27.6702468,53.8088484],[27.6723409,53.8082797],[27.6728544,53.8083877],[27.6735731,53.8081081],[27.6749882,53.8077478],[27.681896,53.8058539],[27.6848898,53.8053736],[27.6868481,53.8050103],[27.6880818,53.8048377],[27.6894154,53.8048461],[27.6909374,53.8051633],[27.6937173,53.8059376],[27.6949423,53.8064593],[27.706443,53.8145125],[27.706924,53.8149498],[27.7075435,53.8157714],[27.7078581,53.8159257],[27.7084259,53.8155182],[27.7129791,53.8178178],[27.7103062,53.8197968],[27.7090168,53.8206392],[27.7081571,53.8209911],[27.7069504,53.8221147],[27.7070188,53.8232359],[27.7068945,53.8237686],[27.7061421,53.8251009],[27.7001302,53.8293873],[27.6977221,53.8310548],[27.7025345,53.8298251],[27.7028937,53.8298679],[27.7049022,53.8295252],[27.7054986,53.8293591],[27.7065689,53.8295908],[27.7076341,53.8296443],[27.7081101,53.8294754],[27.7094217,53.8295593],[27.7103526,53.828411],[27.7127171,53.8282672],[27.7140023,53.8278751],[27.7137132,53.8285706],[27.7127652,53.829634],[27.7149871,53.8309246],[27.7146113,53.8323063],[27.7140374,53.8327109],[27.7139451,53.8331812],[27.7141226,53.8340533],[27.7139633,53.8350161],[27.7147454,53.8353771],[27.7167499,53.8360679],[27.7173297,53.8361204],[27.7175739,53.8374838],[27.7171692,53.8376717],[27.7173009,53.8385393],[27.7178825,53.8383836],[27.7187241,53.8378359],[27.7210731,53.8380146],[27.7231108,53.8394142],[27.7252083,53.8384],[27.7276317,53.8371624],[27.73621,53.8330131],[27.7556647,53.8234884],[27.7571339,53.8233698],[27.7611827,53.8241381],[27.7613512,53.8239995],[27.769757,53.8254668],[27.7706515,53.8249592],[27.7716684,53.8252314],[27.7728719,53.8242216],[27.7735503,53.8242321],[27.7737686,53.8245768],[27.7755207,53.8246081],[27.7775538,53.8245793],[27.7820163,53.8245728],[27.7820828,53.8265314],[27.7821979,53.8280673],[27.7821714,53.8291696],[27.7824116,53.8326087],[27.7825305,53.8356414],[27.7813495,53.8373149],[27.7824924,53.8389863],[27.7839429,53.8395659],[27.7900868,53.8392609],[27.797059,53.8390383],[27.7954991,53.8404171],[27.7992867,53.8410153],[27.8055127,53.8431544],[27.808292,53.8433636],[27.8096215,53.8418827],[27.8159196,53.8446731],[27.8184363,53.8548431],[27.8114698,53.8548981],[27.8100663,53.8563478],[27.8040602,53.857348],[27.8038846,53.8575989],[27.8025217,53.8579135],[27.8023778,53.8577379],[27.7978753,53.8590209],[27.798187,53.8592939],[27.7966091,53.8596793],[27.7962344,53.8596344],[27.7953646,53.8599958],[27.7960406,53.8609702],[27.7962447,53.8619826],[27.7957942,53.8637731],[27.7938838,53.8656841],[27.7853018,53.8677846],[27.7830162,53.8656843],[27.7712706,53.865716],[27.7666045,53.86528],[27.7606678,53.8646225],[27.7514843,53.8629621],[27.750693,53.8645694],[27.7473467,53.8667967],[27.7445636,53.8663376],[27.7423106,53.8662399],[27.7381691,53.8648918],[27.7363638,53.86492],[27.7306903,53.8480561],[27.7306571,53.8475257],[27.7301304,53.8448918],[27.7319269,53.843788],[27.7297112,53.841423],[27.7278768,53.8398231],[27.7264559,53.838365],[27.7230162,53.8399161],[27.7167636,53.8430756],[27.7166438,53.8430622],[27.7101101,53.8462361],[27.7107875,53.8466094],[27.710845,53.8472223],[27.7103309,53.8476264],[27.7097372,53.8477383],[27.7070655,53.8478479],[27.7066771,53.8480071],[27.6980183,53.8523004],[27.6896191,53.8562964],[27.6886104,53.8568457],[27.6855165,53.8583346],[27.6849101,53.858933],[27.6843643,53.8610759],[27.6843423,53.8617399],[27.6865836,53.8641574],[27.6871412,53.8645242],[27.6879676,53.8652644],[27.6892021,53.866542],[27.689234,53.8667006],[27.6902212,53.8678646],[27.6908546,53.8689591],[27.6911654,53.8690853],[27.6917788,53.8700979],[27.6922229,53.8706273],[27.6934405,53.8723061],[27.6939557,53.8727482],[27.6953551,53.8748329],[27.6964562,53.8772775],[27.6969364,53.8793905],[27.6970301,53.8816001],[27.6968076,53.8832849],[27.6961633,53.8851215],[27.6952731,53.8869234],[27.692696,53.8938337],[27.6921673,53.8947976],[27.6851858,53.8940861],[27.6829334,53.8942304],[27.6811332,53.8938946],[27.6792152,53.8934217],[27.6773036,53.8924158],[27.6724444,53.8897351],[27.671098,53.889038],[27.6608681,53.884431],[27.6596082,53.8850222],[27.659173,53.8851418],[27.6581708,53.8849244],[27.6572669,53.8843554],[27.6575375,53.8836994],[27.6572792,53.8832537],[27.6567935,53.8828985],[27.6574514,53.8822135],[27.6585397,53.8813437],[27.657064,53.8805645],[27.6558897,53.88055],[27.6558835,53.8808436],[27.6492759,53.8849488],[27.6437498,53.8849325],[27.6429215,53.8848954],[27.6423558,53.8844641],[27.6411766,53.8842331],[27.6395038,53.8856824],[27.6387647,53.8857387],[27.6353214,53.8843293],[27.6300868,53.8885164],[27.6203904,53.8847812],[27.6135542,53.8822326],[27.6121386,53.8814828],[27.6111047,53.8805686],[27.6095663,53.8787161],[27.6064615,53.8793425],[27.6040231,53.8799065],[27.6005519,53.8809126]],[[27.6722386,53.8099766],[27.6723888,53.81023],[27.6748467,53.812611],[27.6770322,53.8118016],[27.677039,53.8114174],[27.6777151,53.8111257],[27.6795509,53.8110097],[27.6801608,53.810837],[27.6821292,53.810619],[27.6828354,53.8112689],[27.6834153,53.8116393],[27.6891943,53.809528],[27.6893661,53.8092173],[27.6908011,53.8106759],[27.6927808,53.8125905],[27.6936492,53.8132635],[27.6954355,53.81441],[27.7005116,53.8169753],[27.7021874,53.8177825],[27.702359,53.8176303],[27.7010705,53.8170978],[27.7028737,53.8158175],[27.7037121,53.8162168],[27.704571,53.8156461],[27.7056236,53.816128],[27.7062743,53.815675],[27.7045056,53.8148851],[27.7052164,53.8143657],[27.7042072,53.8137758],[27.7043346,53.8136681],[27.6990714,53.8100019],[27.6954987,53.8073855],[27.6932886,53.8063338],[27.6905527,53.8055228],[27.6893189,53.8052124],[27.6885572,53.8051934],[27.6834395,53.8057953],[27.682034,53.8060424],[27.6805642,53.8064098],[27.6749637,53.8079493],[27.6737728,53.8083358],[27.6732149,53.8086019],[27.6725726,53.80932],[27.6722386,53.8099766]]]},"properties":{"slug":"zavodskoy","name":"Заводской","level":"district","citySlug":"minsk","districtSlug":"zavodskoy","osmRelationId":59209}},{"type":"Feature","geometry":{"type":"Polygon","coordinates":[[[27.6005519,53.8809126],[27.6006581,53.8832851],[27.6002804,53.8842919],[27.600217,53.8917848],[27.60038,53.8931302],[27.597436,53.8934792],[27.5939856,53.893545],[27.5903925,53.8927194],[27.5892702,53.8922711],[27.5865555,53.8909603],[27.5853672,53.8917858],[27.5846421,53.8914054],[27.5832692,53.8920727],[27.5832769,53.8923857],[27.5819233,53.8935411],[27.5800557,53.8952661],[27.5794446,53.8956945],[27.5744529,53.8987622],[27.5728166,53.8995318],[27.5720645,53.8991639],[27.5694037,53.9015003],[27.5679103,53.9030477],[27.5663157,53.9042278],[27.5537218,53.8979188],[27.550322,53.8962181],[27.5513395,53.8955293],[27.5526382,53.8944963],[27.5634203,53.888158],[27.5603966,53.8882377],[27.5617547,53.8873678],[27.5625365,53.8866356],[27.563179,53.8857356],[27.5634364,53.8851531],[27.5636755,53.8834664],[27.5635572,53.8825032],[27.5619484,53.8724546],[27.5614108,53.8682217],[27.5609483,53.8659704],[27.5603265,53.8634842],[27.5597893,53.8617593],[27.559568,53.8607946],[27.5589613,53.8594521],[27.5579362,53.8561158],[27.5569557,53.8524194],[27.5566619,53.8510522],[27.5559568,53.8486178],[27.5558015,53.847631],[27.5558523,53.8469058],[27.5563807,53.8451564],[27.5568983,53.8441883],[27.5594634,53.8401149],[27.5606759,53.838292],[27.5635144,53.8338089],[27.564376,53.8328114],[27.5645444,53.8326701],[27.5703256,53.8328938],[27.5716015,53.8327683],[27.5743283,53.8326351],[27.5752866,53.8323953],[27.5782722,53.8268917],[27.5788752,53.8258619],[27.5796146,53.8260626],[27.5777248,53.8289001],[27.5766019,53.8307638],[27.5760196,53.8323347],[27.5783105,53.8327677],[27.5796115,53.8328622],[27.5867366,53.8329212],[27.5915801,53.8329448],[27.5976646,53.8330275],[27.6004822,53.8330372],[27.6007348,53.835447],[27.6010662,53.8358431],[27.5963213,53.8377953],[27.5964184,53.83822],[27.5973666,53.8382573],[27.5989437,53.8381646],[27.6006281,53.8379399],[27.6008803,53.8388198],[27.603085,53.8398422],[27.6081199,53.8427875],[27.6192319,53.8449229],[27.6241672,53.8508066],[27.6272255,53.8536573],[27.6268037,53.8545059],[27.6252317,53.8546262],[27.624679,53.8548443],[27.6240881,53.8554832],[27.6220768,53.8568433],[27.6206271,53.8582744],[27.6182106,53.8609951],[27.6180456,53.86148],[27.6183322,53.8623052],[27.6187943,53.8629658],[27.6189877,53.8634679],[27.6195169,53.8642224],[27.6196521,53.864612],[27.619361,53.8650827],[27.6173541,53.8668231],[27.6170092,53.8672071],[27.6166846,53.8679229],[27.6161432,53.8682781],[27.6151593,53.8684974],[27.6142874,53.8695493],[27.6127578,53.8700194],[27.6122342,53.8703309],[27.611784,53.8709947],[27.6106616,53.8721304],[27.6077109,53.8742869],[27.6053394,53.8754253],[27.6037472,53.8765673],[27.6031353,53.8772335],[27.6019291,53.878062],[27.6011295,53.8788003],[27.6005043,53.8791784],[27.6005519,53.8809126]]]},"properties":{"slug":"leninsky","name":"Ленинский","level":"district","citySlug":"minsk","districtSlug":"leninsky","osmRelationId":59202}},{"type":"Feature","geometry":{"type":"Polygon","coordinates":[[[27.5537218,53.8979188],[27.5511917,53.9005889],[27.5495747,53.9012987],[27.5486186,53.9018179],[27.545458,53.903242],[27.5411528,53.905088],[27.5363716,53.9056682],[27.5335413,53.9059892],[27.5250514,53.9068198],[27.5264018,53.9043595],[27.5208447,53.9026666],[27.5182795,53.9013767],[27.5165199,53.900688],[27.5157983,53.9005062],[27.5097818,53.8991839],[27.5043418,53.8970692],[27.4978629,53.8947747],[27.4991222,53.8930456],[27.4996194,53.8921369],[27.5009483,53.8891974],[27.5007272,53.8879662],[27.5003496,53.8865006],[27.4986158,53.8860959],[27.4963672,53.8859906],[27.495483,53.8860808],[27.4910799,53.8872797],[27.4899641,53.8872089],[27.4859043,53.8860808],[27.4827846,53.8855196],[27.4797073,53.885069],[27.473373,53.8846896],[27.4682341,53.8763248],[27.4665405,53.8746873],[27.465801,53.8741264],[27.4644968,53.8741539],[27.4609616,53.8744729],[27.4603446,53.8741987],[27.4597384,53.8742414],[27.4593875,53.8737376],[27.4580459,53.8729988],[27.4583006,53.870814],[27.4558464,53.8708533],[27.4510058,53.8704714],[27.4478778,53.8701732],[27.4475224,53.871504],[27.4439455,53.871342],[27.4433588,53.8736011],[27.443002,53.873806],[27.4401824,53.8737915],[27.4400254,53.874598],[27.4377394,53.8744011],[27.4367327,53.8746227],[27.4368938,53.8761043],[27.4354059,53.8762991],[27.4353973,53.8768389],[27.4347267,53.8772665],[27.4341812,53.8772618],[27.4341235,53.8780738],[27.432664,53.877962],[27.4278537,53.8772653],[27.4266475,53.8771528],[27.4261489,53.8778344],[27.4227732,53.8767929],[27.420758,53.8766329],[27.4187101,53.8763481],[27.4202876,53.8736599],[27.4206283,53.8727431],[27.4210231,53.8720503],[27.4222341,53.8696052],[27.4228736,53.8678097],[27.4252452,53.8633204],[27.4277978,53.8582433],[27.4282711,53.8573627],[27.428955,53.8563241],[27.4306978,53.8542454],[27.4305211,53.8541767],[27.4325911,53.8524025],[27.4350018,53.8505716],[27.437165,53.8491123],[27.4386395,53.8484805],[27.4430674,53.8463229],[27.4452681,53.8455797],[27.4477536,53.8448483],[27.4504545,53.8442576],[27.4530015,53.843801],[27.4541182,53.8437585],[27.4573737,53.8435397],[27.4602345,53.8432117],[27.4602615,53.8430282],[27.4619606,53.8428802],[27.463056,53.8429257],[27.4667221,53.8425825],[27.4666136,53.8409374],[27.4663083,53.8408973],[27.4660097,53.8402971],[27.4641063,53.8385259],[27.4653375,53.8382208],[27.4654827,53.8383608],[27.4668691,53.837699],[27.4670437,53.8377908],[27.4683103,53.8370197],[27.4683198,53.8367416],[27.4676692,53.8363658],[27.4688227,53.8356434],[27.4727736,53.8376578],[27.4735669,53.8374872],[27.4733781,53.8357913],[27.4749756,53.8355605],[27.4755848,53.8368485],[27.4763139,53.8367248],[27.4778274,53.8362417],[27.4781043,53.8369342],[27.4785466,53.8374198],[27.4796983,53.8390702],[27.480201,53.839686],[27.4803165,53.8405254],[27.481594,53.8404229],[27.481904,53.8408016],[27.4835313,53.8419997],[27.4848584,53.8428115],[27.4867102,53.8436384],[27.4914043,53.8453233],[27.4925647,53.8458572],[27.493911,53.8468962],[27.4967542,53.8499318],[27.497982,53.8509211],[27.4999633,53.8520648],[27.5012679,53.8526672],[27.5025296,53.8533608],[27.5054651,53.8555327],[27.5093189,53.8594458],[27.5106578,53.8609138],[27.5118551,53.8626101],[27.5128379,53.8637736],[27.5156274,53.8665523],[27.5188203,53.8698116],[27.5206485,53.8717953],[27.5211292,53.872853],[27.521421,53.8744875],[27.52173,53.8755653],[27.5242448,53.8782521],[27.529017,53.8815711],[27.5299731,53.8821818],[27.5328894,53.8831381],[27.5356385,53.8838767],[27.5370078,53.884293],[27.5382095,53.8871917],[27.5399947,53.8902925],[27.5407199,53.8908032],[27.5436423,53.8927152],[27.547797,53.8918059],[27.548698,53.8919213],[27.5513395,53.8955293],[27.550322,53.8962181],[27.5537218,53.8979188]],[[27.4660126,53.8389148],[27.4663586,53.839262],[27.4696827,53.8402051],[27.4697655,53.8403809],[27.4723609,53.841012],[27.4725554,53.8409468],[27.4746536,53.8414807],[27.477459,53.8411785],[27.4765752,53.8405749],[27.4762863,53.8405741],[27.4740211,53.8391204],[27.4718471,53.83935],[27.4707381,53.8391458],[27.469773,53.8385153],[27.4695075,53.8379014],[27.4686753,53.8378416],[27.4660617,53.8382849],[27.4660126,53.8389148]]]},"properties":{"slug":"moskovsky","name":"Московский","level":"district","citySlug":"minsk","districtSlug":"moskovsky","osmRelationId":59208}},{"type":"Feature","geometry":{"type":"MultiPolygon","coordinates":[[[[27.5788752,53.8258619],[27.5792571,53.8254884],[27.5799113,53.8243286],[27.5778843,53.8238248],[27.5732071,53.8241952],[27.5719594,53.8240667],[27.5702391,53.8241101],[27.5703313,53.8237036],[27.5707767,53.822921],[27.5718565,53.8221878],[27.5726993,53.8212519],[27.5736119,53.8196167],[27.5745665,53.8180614],[27.5724517,53.8177167],[27.5710354,53.8173324],[27.5707851,53.8168494],[27.5710885,53.8163721],[27.5729855,53.8166684],[27.5745135,53.8169995],[27.5761693,53.8140244],[27.580791,53.8069866],[27.5817534,53.8067875],[27.5845398,53.8023416],[27.5854864,53.8010654],[27.5864032,53.8004778],[27.5868224,53.8012806],[27.586944,53.8023281],[27.5872443,53.8023811],[27.587316,53.802919],[27.5908338,53.803701],[27.5931024,53.800016],[27.588003,53.7988209],[27.5885434,53.7981157],[27.5879939,53.7968795],[27.5898642,53.793847],[27.5962173,53.7951595],[27.5947273,53.79785],[27.5988471,53.7987499],[27.5987881,53.7996719],[27.594319,53.7987436],[27.5935418,53.7999084],[27.5995676,53.8012658],[27.5988336,53.8023372],[27.5972786,53.8048668],[27.5987104,53.805144],[27.5990601,53.8057626],[27.598182,53.8060903],[27.5966906,53.8064261],[27.5974631,53.8082285],[27.5964385,53.8090347],[27.596004,53.8097806],[27.5957036,53.8097331],[27.5951779,53.810563],[27.5942981,53.8108417],[27.5934291,53.812248],[27.5949049,53.8135771],[27.5930908,53.8156227],[27.5916048,53.8166146],[27.5927009,53.823897],[27.5918564,53.8250913],[27.5886491,53.825963],[27.5830131,53.8252491],[27.5811056,53.8249044],[27.5805439,53.824265],[27.5799263,53.8251368],[27.5800188,53.8254553],[27.5796146,53.8260626],[27.5788752,53.8258619]]],[[[27.5513395,53.8955293],[27.548698,53.8919213],[27.547797,53.8918059],[27.5436423,53.8927152],[27.5407199,53.8908032],[27.5399947,53.8902925],[27.5382095,53.8871917],[27.5370078,53.884293],[27.5356385,53.8838767],[27.5328894,53.8831381],[27.5299731,53.8821818],[27.529017,53.8815711],[27.5242448,53.8782521],[27.52173,53.8755653],[27.521421,53.8744875],[27.5211292,53.872853],[27.5206485,53.8717953],[27.5188203,53.8698116],[27.5156274,53.8665523],[27.5128379,53.8637736],[27.5118551,53.8626101],[27.5106578,53.8609138],[27.5093189,53.8594458],[27.5054651,53.8555327],[27.5025296,53.8533608],[27.5012679,53.8526672],[27.4999633,53.8520648],[27.497982,53.8509211],[27.4967542,53.8499318],[27.493911,53.8468962],[27.4925647,53.8458572],[27.4914043,53.8453233],[27.4867102,53.8436384],[27.4848584,53.8428115],[27.4835313,53.8419997],[27.481904,53.8408016],[27.48284,53.8405354],[27.4924101,53.839684],[27.4928399,53.8395029],[27.4991264,53.8389373],[27.5015387,53.8379826],[27.5031634,53.8378088],[27.5069496,53.8381197],[27.5147613,53.8372366],[27.514881,53.8372628],[27.5296113,53.8356012],[27.5316739,53.8342463],[27.5330636,53.8332589],[27.5336526,53.8330086],[27.5342309,53.8335733],[27.5362243,53.8345629],[27.5390449,53.8345585],[27.5538414,53.8328217],[27.5562361,53.8326647],[27.5636871,53.8327149],[27.564376,53.8328114],[27.5635144,53.8338089],[27.5606759,53.838292],[27.5594634,53.8401149],[27.5568983,53.8441883],[27.5563807,53.8451564],[27.5558523,53.8469058],[27.5558015,53.847631],[27.5559568,53.8486178],[27.5566619,53.8510522],[27.5569557,53.8524194],[27.5579362,53.8561158],[27.5589613,53.8594521],[27.559568,53.8607946],[27.5597893,53.8617593],[27.5603265,53.8634842],[27.5609483,53.8659704],[27.5614108,53.8682217],[27.5619484,53.8724546],[27.5635572,53.8825032],[27.5636755,53.8834664],[27.5634364,53.8851531],[27.563179,53.8857356],[27.5625365,53.8866356],[27.5617547,53.8873678],[27.5603966,53.8882377],[27.5634203,53.888158],[27.5526382,53.8944963],[27.5513395,53.8955293]]],[[[27.9998506,53.9010734],[27.9999031,53.9007531],[28.0007584,53.8993283],[28.0011268,53.8988343],[28.0042998,53.8967427],[28.0080684,53.8941516],[28.0135477,53.890526],[28.013052,53.8902183],[28.0138335,53.8896651],[28.0143949,53.889941],[28.0203854,53.8858144],[28.0203998,53.8857803],[28.0171215,53.8840602],[28.0219681,53.8814379],[28.0233256,53.8822051],[28.0241097,53.8816382],[28.0254359,53.8823347],[28.0263051,53.8816882],[28.0264053,53.8813691],[28.0270224,53.8806293],[28.0275941,53.8802089],[28.0294086,53.8797933],[28.0330091,53.8774075],[28.0412432,53.8718886],[28.0410563,53.8716669],[28.0421224,53.8709271],[28.0433069,53.870563],[28.04831,53.867183],[28.0509593,53.8653553],[28.05719,53.8623648],[28.0607636,53.8643558],[28.0577188,53.8685512],[28.0590078,53.870424],[28.058178,53.8709022],[28.0587862,53.8712111],[28.0595616,53.870735],[28.0609102,53.8708008],[28.0619031,53.8702287],[28.0643177,53.8708754],[28.0648756,53.8708248],[28.0661416,53.8713056],[28.0658779,53.8716148],[28.0678421,53.8717317],[28.0707223,53.8737217],[28.0724732,53.8733973],[28.0758733,53.8727012],[28.0786919,53.8739877],[28.0791453,53.8737787],[28.0799469,53.8741918],[28.076124,53.8768716],[28.0790029,53.8781056],[28.0773239,53.8793998],[28.0694633,53.8849558],[28.0630945,53.8891358],[28.0602416,53.8909897],[28.0557315,53.8942375],[28.0539906,53.8952328],[28.03253,53.9104822],[28.0250245,53.9149885],[28.0151346,53.9209376],[28.0103165,53.9242331],[28.0061748,53.9219885],[28.0132097,53.9174234],[28.018266,53.9139977],[28.0203532,53.9127212],[28.0093401,53.9064724],[28.009807,53.906148],[28.0044288,53.9033608],[28.0034088,53.9032388],[28.0029865,53.9029589],[27.9999589,53.901353],[27.9998506,53.9010734]]],[[[27.8797495,53.8746897],[27.8797914,53.8740616],[27.8803215,53.8732994],[27.8830808,53.8714701],[27.8847572,53.8706018],[27.8868324,53.8699324],[27.8884184,53.8697558],[27.8899898,53.8701819],[27.8907918,53.8699855],[27.8958883,53.8695303],[27.897032,53.8697162],[27.8969171,53.870766],[27.8967104,53.8714676],[27.8983434,53.871782],[27.8998435,53.8716692],[27.9006875,53.870261],[27.9057408,53.8703976],[27.9062775,53.873034],[27.9083805,53.8728164],[27.9081326,53.8717014],[27.9137731,53.8732536],[27.9181042,53.8746758],[27.9175388,53.8748538],[27.917171,53.8753623],[27.9171727,53.8761009],[27.9175348,53.8764274],[27.9165042,53.8769685],[27.9131796,53.8779543],[27.9101579,53.8780834],[27.9098172,53.878399],[27.9101659,53.8799714],[27.9090988,53.8800446],[27.910015,53.8834823],[27.9089198,53.8834891],[27.9093494,53.8856124],[27.9065087,53.8860985],[27.9040064,53.88627],[27.9032341,53.8877846],[27.8962276,53.8867312],[27.8958457,53.8875519],[27.894433,53.8868061],[27.8910538,53.8841559],[27.8906125,53.8833259],[27.8902236,53.8821702],[27.8891882,53.8823109],[27.8887304,53.8819191],[27.8885713,53.8800809],[27.8891397,53.8778636],[27.8895637,53.8771161],[27.8868379,53.8758786],[27.8857668,53.8764716],[27.8830808,53.8753887],[27.8821325,53.8760451],[27.8802918,53.8751867],[27.8797495,53.8746897]]]]},"properties":{"slug":"oktyabrsky","name":"Октябрьский","level":"district","citySlug":"minsk","districtSlug":"oktyabrsky","osmRelationId":59199}},{"type":"Feature","geometry":{"type":"Polygon","coordinates":[[[27.6939557,53.8727482],[27.6958687,53.8736768],[27.6954449,53.8740896],[27.6957427,53.8745363],[27.6970793,53.8746091],[27.6971779,53.8741296],[27.6980111,53.8735772],[27.6998897,53.8740746],[27.7039556,53.8752551],[27.7043497,53.8747486],[27.7044274,53.8742839],[27.7099429,53.8760261],[27.7102168,53.875717],[27.7112454,53.8760219],[27.7119348,53.8753299],[27.7122933,53.8753355],[27.7110449,53.8728295],[27.7116796,53.8726912],[27.7135457,53.8732612],[27.7142246,53.8729432],[27.714977,53.8731786],[27.7179866,53.8698811],[27.7182019,53.869887],[27.7287842,53.8733684],[27.7356361,53.8661658],[27.7353368,53.8660722],[27.7363638,53.86492],[27.7381691,53.8648918],[27.7423106,53.8662399],[27.7445636,53.8663376],[27.7473467,53.8667967],[27.750693,53.8645694],[27.7514843,53.8629621],[27.7542732,53.8671155],[27.7542958,53.8693996],[27.7661414,53.8731635],[27.7744556,53.8755785],[27.8037779,53.8737898],[27.8288841,53.8722616],[27.834522,53.8738368],[27.8363869,53.8741055],[27.8380465,53.8743993],[27.8418781,53.8747791],[27.8440867,53.8750507],[27.845492,53.875163],[27.8457286,53.8750646],[27.8490114,53.8757587],[27.8490752,53.8992799],[27.8411286,53.8992821],[27.8407892,53.9017802],[27.8407658,53.9025231],[27.8342188,53.9016089],[27.831003,53.9022262],[27.82956,53.903445],[27.826163,53.9010639],[27.8226236,53.8993286],[27.8206175,53.9003611],[27.8178338,53.9004883],[27.8066551,53.9005471],[27.792806,53.9005588],[27.7881982,53.8998622],[27.7861872,53.8999021],[27.785929,53.8988065],[27.7755178,53.898855],[27.7755354,53.9015225],[27.7704112,53.9034938],[27.7463883,53.9127772],[27.7471429,53.9135097],[27.7460927,53.9138927],[27.7457064,53.9135199],[27.7451378,53.9136716],[27.7487453,53.9172058],[27.752225,53.9192949],[27.7466382,53.9205727],[27.7427883,53.9213854],[27.7428608,53.9215016],[27.74914,53.9298963],[27.7266159,53.9250839],[27.7188974,53.9267036],[27.7192095,53.927135],[27.7191281,53.9282294],[27.7178257,53.9295873],[27.717066,53.9298828],[27.7161977,53.93041],[27.7157861,53.9308527],[27.7110177,53.9307972],[27.7089588,53.9296677],[27.7078377,53.9287189],[27.7049817,53.9254049],[27.7030837,53.9239891],[27.7016879,53.9233971],[27.6977612,53.9225694],[27.688373,53.921893],[27.6851376,53.9219098],[27.6810407,53.9218015],[27.6799045,53.9244256],[27.6753397,53.9237661],[27.6739922,53.923608],[27.6726773,53.9236144],[27.6713642,53.9237819],[27.6582853,53.9266373],[27.6566729,53.9268434],[27.6496835,53.9274428],[27.647774,53.9276766],[27.6423621,53.928803],[27.6410953,53.929103],[27.6394457,53.9293831],[27.6396134,53.92841],[27.6394923,53.9265986],[27.6391295,53.9253574],[27.6367254,53.9190974],[27.6364095,53.917748],[27.6362457,53.916187],[27.6348209,53.9158577],[27.6339573,53.9158845],[27.6319992,53.9151326],[27.6311265,53.9143741],[27.6223855,53.9102385],[27.6151904,53.9083199],[27.6072886,53.9040665],[27.6063083,53.9036745],[27.6034274,53.9027529],[27.6007304,53.9026756],[27.6000788,53.9033244],[27.599449,53.9032712],[27.5971303,53.9041835],[27.5910944,53.9061173],[27.5842083,53.9082017],[27.5819685,53.9088106],[27.5778115,53.9106321],[27.5749355,53.9086053],[27.5663157,53.9042278],[27.5679103,53.9030477],[27.5694037,53.9015003],[27.5720645,53.8991639],[27.5728166,53.8995318],[27.5744529,53.8987622],[27.5794446,53.8956945],[27.5800557,53.8952661],[27.5819233,53.8935411],[27.5832769,53.8923857],[27.5832692,53.8920727],[27.5846421,53.8914054],[27.5853672,53.8917858],[27.5865555,53.8909603],[27.5892702,53.8922711],[27.5903925,53.8927194],[27.5939856,53.893545],[27.597436,53.8934792],[27.60038,53.8931302],[27.600217,53.8917848],[27.6002804,53.8842919],[27.6006581,53.8832851],[27.6005519,53.8809126],[27.6040231,53.8799065],[27.6064615,53.8793425],[27.6095663,53.8787161],[27.6111047,53.8805686],[27.6121386,53.8814828],[27.6135542,53.8822326],[27.6203904,53.8847812],[27.6300868,53.8885164],[27.6353214,53.8843293],[27.6387647,53.8857387],[27.6395038,53.8856824],[27.6411766,53.8842331],[27.6423558,53.8844641],[27.6429215,53.8848954],[27.6437498,53.8849325],[27.6492759,53.8849488],[27.6558835,53.8808436],[27.6558897,53.88055],[27.657064,53.8805645],[27.6585397,53.8813437],[27.6574514,53.8822135],[27.6567935,53.8828985],[27.6572792,53.8832537],[27.6575375,53.8836994],[27.6572669,53.8843554],[27.6581708,53.8849244],[27.659173,53.8851418],[27.6596082,53.8850222],[27.6608681,53.884431],[27.671098,53.889038],[27.6724444,53.8897351],[27.6773036,53.8924158],[27.6792152,53.8934217],[27.6811332,53.8938946],[27.6829334,53.8942304],[27.6851858,53.8940861],[27.6921673,53.8947976],[27.692696,53.8938337],[27.6952731,53.8869234],[27.6961633,53.8851215],[27.6968076,53.8832849],[27.6970301,53.8816001],[27.6969364,53.8793905],[27.6964562,53.8772775],[27.6953551,53.8748329],[27.6939557,53.8727482]],[[27.7280541,53.8874891],[27.7280969,53.8884627],[27.7315198,53.8884058],[27.7347393,53.8917219],[27.7374393,53.8937472],[27.7429466,53.8950949],[27.7460375,53.8971683],[27.7621421,53.8968139],[27.7629244,53.8959093],[27.7643299,53.8956122],[27.7670978,53.8948219],[27.7711965,53.8945056],[27.7779122,53.8911607],[27.7779009,53.890713],[27.77835,53.8903692],[27.7781894,53.8896954],[27.777584,53.8893227],[27.7769991,53.889156],[27.7641781,53.887298],[27.7639316,53.8863872],[27.7634468,53.8850698],[27.7635679,53.8841899],[27.7645538,53.8829849],[27.7652078,53.8816569],[27.7640058,53.881473],[27.7603755,53.881056],[27.7594776,53.8811071],[27.7588993,53.8813346],[27.7584381,53.8818153],[27.7561028,53.8836647],[27.7555092,53.8841933],[27.7545866,53.8845664],[27.7517235,53.8845857],[27.7500868,53.8842468],[27.7491539,53.8845861],[27.7485444,53.8850299],[27.7461545,53.8856166],[27.7445227,53.8858259],[27.7390399,53.8855916],[27.7386533,53.8857878],[27.7373611,53.8861238],[27.7301479,53.88612],[27.7303077,53.8874751],[27.7280541,53.8874891]]]},"properties":{"slug":"partizansky","name":"Партизанский","level":"district","citySlug":"minsk","districtSlug":"partizansky","osmRelationId":59257}},{"type":"Feature","geometry":{"type":"Polygon","coordinates":[[[27.7157861,53.9308527],[27.7181722,53.9311287],[27.7184682,53.9309306],[27.7200353,53.9308627],[27.721343,53.9309538],[27.724392,53.9313291],[27.7252354,53.9311427],[27.7300102,53.9323602],[27.7296685,53.9328374],[27.7326468,53.9332287],[27.7328781,53.9333206],[27.7317692,53.935333],[27.7343415,53.9356058],[27.7352797,53.9354609],[27.732789,53.9405241],[27.7348028,53.9413141],[27.740326,53.9408007],[27.7421402,53.9405252],[27.743932,53.9413909],[27.7447023,53.9409788],[27.7451738,53.941036],[27.7428779,53.9478514],[27.7414496,53.9474968],[27.7397475,53.9519552],[27.7438485,53.9517575],[27.746351,53.9539088],[27.7463197,53.9554513],[27.7443493,53.9610878],[27.7435602,53.961429],[27.7413923,53.9617015],[27.7397805,53.9629899],[27.7386546,53.9636982],[27.7352518,53.9619725],[27.7344085,53.962598],[27.7245235,53.9582747],[27.721461,53.9595701],[27.7190346,53.9601246],[27.7061644,53.9612734],[27.6926371,53.9612214],[27.6921613,53.9584384],[27.6909206,53.9587959],[27.6907246,53.9587119],[27.6881222,53.9583858],[27.6862366,53.9591057],[27.6851743,53.9580355],[27.6860439,53.9576132],[27.6852789,53.9571666],[27.6859596,53.9566207],[27.6864897,53.9565108],[27.6879401,53.9576986],[27.6897691,53.9574648],[27.6905179,53.9553322],[27.6819822,53.9535259],[27.6808903,53.9531289],[27.6809418,53.9526632],[27.6803756,53.952494],[27.6797427,53.9531906],[27.6789333,53.9529465],[27.6795621,53.9522319],[27.6749959,53.9507852],[27.6746072,53.9508125],[27.6725242,53.9501512],[27.6718322,53.9508754],[27.6718461,53.9511762],[27.6724171,53.9515921],[27.6718526,53.9519098],[27.6702343,53.9525265],[27.6641829,53.9508307],[27.6640714,53.950274],[27.66478,53.9500164],[27.6625587,53.9492783],[27.6632614,53.9485594],[27.6622282,53.9482363],[27.662732,53.9476138],[27.6645375,53.9469699],[27.6642877,53.946682],[27.6629126,53.947152],[27.6614741,53.9477694],[27.6583308,53.9488093],[27.6399171,53.9554119],[27.6394227,53.9556082],[27.6330096,53.9578412],[27.6350133,53.9592054],[27.6333416,53.9600335],[27.6311995,53.9585835],[27.6302219,53.9589742],[27.630016,53.9585486],[27.6283836,53.9591134],[27.6275685,53.9590889],[27.6239039,53.9578547],[27.6231644,53.9575714],[27.6160737,53.9504349],[27.6118342,53.9459787],[27.6081344,53.9422009],[27.6022061,53.9345808],[27.6006242,53.9326262],[27.5986072,53.9305038],[27.5957864,53.9279827],[27.5940322,53.9261284],[27.5988217,53.9244999],[27.6009327,53.9223339],[27.5975343,53.9215836],[27.5930293,53.9197808],[27.6007201,53.9133952],[27.5952263,53.9109037],[27.5910944,53.9061173],[27.5971303,53.9041835],[27.599449,53.9032712],[27.6000788,53.9033244],[27.6007304,53.9026756],[27.6034274,53.9027529],[27.6063083,53.9036745],[27.6072886,53.9040665],[27.6151904,53.9083199],[27.6223855,53.9102385],[27.6311265,53.9143741],[27.6319992,53.9151326],[27.6339573,53.9158845],[27.6348209,53.9158577],[27.6362457,53.916187],[27.6364095,53.917748],[27.6367254,53.9190974],[27.6391295,53.9253574],[27.6394923,53.9265986],[27.6396134,53.92841],[27.6394457,53.9293831],[27.6410953,53.929103],[27.6423621,53.928803],[27.647774,53.9276766],[27.6496835,53.9274428],[27.6566729,53.9268434],[27.6582853,53.9266373],[27.6713642,53.9237819],[27.6726773,53.9236144],[27.6739922,53.923608],[27.6753397,53.9237661],[27.6799045,53.9244256],[27.6810407,53.9218015],[27.6851376,53.9219098],[27.688373,53.921893],[27.6977612,53.9225694],[27.7016879,53.9233971],[27.7030837,53.9239891],[27.7049817,53.9254049],[27.7078377,53.9287189],[27.7089588,53.9296677],[27.7110177,53.9307972],[27.7157861,53.9308527]]]},"properties":{"slug":"pervomaysky","name":"Первомайский","level":"district","citySlug":"minsk","districtSlug":"pervomaysky","osmRelationId":59252}},{"type":"Feature","geometry":{"type":"Polygon","coordinates":[[[27.5910944,53.9061173],[27.5952263,53.9109037],[27.6007201,53.9133952],[27.5930293,53.9197808],[27.5975343,53.9215836],[27.6009327,53.9223339],[27.5988217,53.9244999],[27.5940322,53.9261284],[27.5957864,53.9279827],[27.5986072,53.9305038],[27.6006242,53.9326262],[27.6022061,53.9345808],[27.6081344,53.9422009],[27.6118342,53.9459787],[27.6160737,53.9504349],[27.6231644,53.9575714],[27.6239039,53.9578547],[27.6275685,53.9590889],[27.6283836,53.9591134],[27.630016,53.9585486],[27.6302219,53.9589742],[27.6301666,53.959494],[27.6312637,53.9604568],[27.6324568,53.9610692],[27.6321289,53.9616602],[27.6364489,53.9621649],[27.6374156,53.9623043],[27.6384619,53.9625839],[27.6399034,53.9631049],[27.6412079,53.9637934],[27.6415913,53.964159],[27.6417353,53.9646509],[27.6418268,53.9665386],[27.6413096,53.9668288],[27.6373141,53.9671535],[27.632815,53.967561],[27.6322461,53.9674466],[27.6330205,53.9667521],[27.6331151,53.9663024],[27.6311475,53.9655063],[27.6332743,53.9635172],[27.635411,53.9643092],[27.6357333,53.9640065],[27.6312858,53.9626738],[27.6320887,53.9618581],[27.630183,53.9617152],[27.6284234,53.9615287],[27.6280416,53.9612972],[27.6261757,53.9610257],[27.6255839,53.9615289],[27.625113,53.9615381],[27.6241666,53.9610961],[27.6192145,53.9628364],[27.6188564,53.9629209],[27.6146784,53.9643723],[27.6144037,53.9645805],[27.6127634,53.9651759],[27.6117789,53.9654512],[27.6017381,53.9690059],[27.5984241,53.9699764],[27.5987068,53.9709006],[27.5977016,53.9710762],[27.5973247,53.970152],[27.5954242,53.9705494],[27.5955135,53.9715281],[27.5951759,53.9715527],[27.5948874,53.9706673],[27.5928327,53.9710485],[27.5895279,53.9713959],[27.587184,53.971716],[27.583042,53.9717897],[27.5791084,53.9716633],[27.5791361,53.9714844],[27.5776564,53.9715458],[27.5756798,53.971401],[27.5725331,53.971333],[27.568818,53.9710705],[27.5635364,53.9708235],[27.5631271,53.9709021],[27.5594797,53.9706666],[27.559423,53.9708234],[27.558833,53.9678641],[27.5575936,53.9624497],[27.5534987,53.9487168],[27.5675492,53.9479389],[27.5659699,53.9418365],[27.5655831,53.9285935],[27.5652929,53.9280534],[27.5596746,53.9231641],[27.5566727,53.917606],[27.5716931,53.9160743],[27.573626,53.915416],[27.5746187,53.9141248],[27.5768017,53.9111593],[27.5778115,53.9106321],[27.5819685,53.9088106],[27.5842083,53.9082017],[27.5910944,53.9061173]]]},"properties":{"slug":"sovetsky","name":"Советский","level":"district","citySlug":"minsk","districtSlug":"sovetsky","osmRelationId":59250}},{"type":"Feature","geometry":{"type":"Polygon","coordinates":[[[27.5335413,53.9059892],[27.5335519,53.9065002],[27.5333534,53.9070817],[27.5327848,53.9074799],[27.5302743,53.9085257],[27.5280708,53.9088756],[27.5244646,53.9094993],[27.5230449,53.9105518],[27.5219045,53.9123785],[27.5216948,53.9128934],[27.5210505,53.9136969],[27.5202358,53.914962],[27.5190022,53.9158586],[27.5127256,53.9207751],[27.5060137,53.9258699],[27.5028551,53.9272749],[27.4980915,53.9282856],[27.4864996,53.9293645],[27.4834266,53.9296183],[27.4738777,53.9304829],[27.4661257,53.9310569],[27.4619791,53.9314793],[27.4604782,53.9316638],[27.4583527,53.9320759],[27.451422,53.9334702],[27.4490919,53.9339986],[27.4464349,53.935024],[27.4440868,53.9362545],[27.4373749,53.9412817],[27.4347594,53.9431262],[27.4322464,53.9411487],[27.4310148,53.9402384],[27.4310068,53.9400725],[27.4282623,53.937823],[27.4271162,53.9369486],[27.4235376,53.9337618],[27.423562,53.9335652],[27.4226418,53.9324481],[27.422489,53.9324948],[27.4192141,53.9289166],[27.4193112,53.9287004],[27.4185321,53.9276186],[27.418301,53.9276691],[27.417168,53.9260172],[27.4172586,53.925878],[27.4154969,53.9233468],[27.4153436,53.9229907],[27.4145751,53.9219759],[27.4135404,53.9202416],[27.4133905,53.9202628],[27.4126162,53.9189995],[27.412911,53.9188834],[27.4116225,53.9161168],[27.4113659,53.9161385],[27.4099823,53.9131456],[27.4090388,53.9127258],[27.4046655,53.9118295],[27.4038322,53.9116875],[27.4024441,53.911595],[27.4025313,53.9112855],[27.4032951,53.9113441],[27.4045202,53.9111718],[27.4055391,53.9108396],[27.4080496,53.9097723],[27.4083148,53.90904],[27.4079205,53.9084095],[27.4074277,53.9071912],[27.4072249,53.9071647],[27.4067789,53.9056468],[27.406549,53.9039416],[27.4066978,53.9038625],[27.4068932,53.9020275],[27.4057007,53.9020514],[27.4056997,53.9018753],[27.4068331,53.9017217],[27.4070232,53.9004235],[27.4083976,53.89741],[27.4085447,53.8973667],[27.4098872,53.8946052],[27.4101206,53.8943644],[27.4114052,53.8916075],[27.410303,53.8911837],[27.4052454,53.8904823],[27.4020323,53.8903242],[27.4026535,53.8908947],[27.4016102,53.8920485],[27.4023937,53.8931404],[27.4027413,53.8940393],[27.4026528,53.8949019],[27.4016604,53.8959792],[27.4014305,53.8966517],[27.4011283,53.8969564],[27.4007043,53.8969726],[27.4003311,53.8973187],[27.400251,53.8981634],[27.401075,53.8983548],[27.4008276,53.8989781],[27.4012924,53.8998756],[27.4013187,53.901674],[27.401567,53.9020428],[27.4012077,53.9024125],[27.3995984,53.9024109],[27.3990939,53.9030186],[27.3986588,53.903018],[27.3987638,53.9022652],[27.3972352,53.9018237],[27.3987741,53.9016166],[27.3995171,53.901092],[27.3991248,53.8984439],[27.3999114,53.8982303],[27.399725,53.8974996],[27.3999578,53.8971001],[27.3997557,53.895931],[27.4014531,53.894824],[27.4015275,53.8940671],[27.4013359,53.8933161],[27.4007512,53.8924657],[27.4006868,53.8917576],[27.4012286,53.8910273],[27.4012447,53.8907933],[27.4007995,53.89018],[27.3995218,53.8902134],[27.3990905,53.8889943],[27.399475,53.8886831],[27.402108,53.8874371],[27.4022334,53.886512],[27.4031002,53.8865141],[27.4031046,53.8858097],[27.4109196,53.8858222],[27.4124704,53.8867263],[27.4102764,53.8909684],[27.4115706,53.891272],[27.4117536,53.8907871],[27.412595,53.8894205],[27.4124832,53.8893449],[27.4130639,53.8880668],[27.4140194,53.8864444],[27.4142258,53.8857431],[27.4154884,53.8832961],[27.4160615,53.8818916],[27.4167351,53.8810126],[27.4171494,53.8796825],[27.4155412,53.8794656],[27.4127115,53.8789153],[27.4114557,53.8803701],[27.4114494,53.882054],[27.4085299,53.8820501],[27.4085359,53.8804904],[27.4046333,53.8805367],[27.4044882,53.8816629],[27.3996806,53.8816187],[27.3997754,53.8808173],[27.3998128,53.8762468],[27.3987322,53.8762453],[27.3987384,53.874718],[27.3947856,53.8747123],[27.3947792,53.8762396],[27.3861105,53.8762332],[27.3861168,53.8741105],[27.3854993,53.8740713],[27.3845638,53.8738235],[27.383161,53.8730827],[27.3805384,53.8722933],[27.3790799,53.8718132],[27.3780102,53.8716635],[27.3768728,53.871601],[27.3756527,53.8716599],[27.3747217,53.8717961],[27.3740176,53.8720395],[27.3774406,53.8697477],[27.3806587,53.8678431],[27.3801038,53.8678549],[27.3825632,53.8663232],[27.3840905,53.8655402],[27.3873077,53.8639831],[27.3910827,53.8624234],[27.3946601,53.8605688],[27.3966685,53.8603938],[27.396682,53.8605398],[27.399822,53.8605343],[27.3994851,53.8613019],[27.3996717,53.8630642],[27.399736,53.8644436],[27.3986072,53.8643227],[27.3966479,53.8643299],[27.3965841,53.8672304],[27.3966196,53.8677023],[27.399881,53.8677691],[27.399872,53.8679019],[27.4051725,53.8678853],[27.4105774,53.8679243],[27.4105717,53.86964],[27.4139431,53.8695666],[27.4222341,53.8696052],[27.4210231,53.8720503],[27.4201889,53.8719759],[27.4198298,53.8721567],[27.4109381,53.8721138],[27.41093,53.8725866],[27.4088045,53.8725702],[27.4087766,53.8739958],[27.4139426,53.8739698],[27.4139054,53.8763166],[27.4126069,53.876332],[27.4125978,53.8768614],[27.415425,53.8771466],[27.4164322,53.8770075],[27.4165515,53.8767714],[27.4185059,53.8768752],[27.4187101,53.8763481],[27.420758,53.8766329],[27.4227732,53.8767929],[27.4261489,53.8778344],[27.4266475,53.8771528],[27.4278537,53.8772653],[27.432664,53.877962],[27.4341235,53.8780738],[27.4341812,53.8772618],[27.4347267,53.8772665],[27.4353973,53.8768389],[27.4354059,53.8762991],[27.4368938,53.8761043],[27.4367327,53.8746227],[27.4377394,53.8744011],[27.4400254,53.874598],[27.4401824,53.8737915],[27.443002,53.873806],[27.4433588,53.8736011],[27.4439455,53.871342],[27.4475224,53.871504],[27.4478778,53.8701732],[27.4510058,53.8704714],[27.4558464,53.8708533],[27.4583006,53.870814],[27.4580459,53.8729988],[27.4593875,53.8737376],[27.4597384,53.8742414],[27.4603446,53.8741987],[27.4609616,53.8744729],[27.4644968,53.8741539],[27.465801,53.8741264],[27.4665405,53.8746873],[27.4682341,53.8763248],[27.473373,53.8846896],[27.4797073,53.885069],[27.4827846,53.8855196],[27.4859043,53.8860808],[27.4899641,53.8872089],[27.4910799,53.8872797],[27.495483,53.8860808],[27.4963672,53.8859906],[27.4986158,53.8860959],[27.5003496,53.8865006],[27.5007272,53.8879662],[27.5009483,53.8891974],[27.4996194,53.8921369],[27.4991222,53.8930456],[27.4978629,53.8947747],[27.5043418,53.8970692],[27.5097818,53.8991839],[27.5157983,53.9005062],[27.5165199,53.900688],[27.5182795,53.9013767],[27.5208447,53.9026666],[27.5264018,53.9043595],[27.5250514,53.9068198],[27.5335413,53.9059892]]]},"properties":{"slug":"frunzensky","name":"Фрунзенский","level":"district","citySlug":"minsk","districtSlug":"frunzensky","osmRelationId":59246}},{"type":"Feature","geometry":{"type":"Polygon","coordinates":[[[27.5663157,53.9042278],[27.5749355,53.9086053],[27.5778115,53.9106321],[27.5768017,53.9111593],[27.5746187,53.9141248],[27.573626,53.915416],[27.5716931,53.9160743],[27.5566727,53.917606],[27.5596746,53.9231641],[27.5652929,53.9280534],[27.5655831,53.9285935],[27.5659699,53.9418365],[27.5675492,53.9479389],[27.5534987,53.9487168],[27.5575936,53.9624497],[27.558833,53.9678641],[27.559423,53.9708234],[27.5540478,53.9705708],[27.550684,53.9704501],[27.5506981,53.9703337],[27.5486489,53.9702388],[27.5478722,53.9702994],[27.5450862,53.9701757],[27.5417969,53.9699086],[27.5385435,53.9698253],[27.5383748,53.9704842],[27.5377349,53.9703508],[27.534528,53.9702415],[27.5316497,53.9699327],[27.5306032,53.9696883],[27.5302365,53.9694065],[27.5264337,53.9692321],[27.5263427,53.9693922],[27.524239,53.9693178],[27.5206622,53.969142],[27.5195695,53.9689976],[27.5188069,53.9690742],[27.5159809,53.9689378],[27.514206,53.9688128],[27.5129958,53.9688449],[27.5108841,53.9692444],[27.5091555,53.9693234],[27.507347,53.9692173],[27.5048946,53.9687105],[27.5033728,53.9684632],[27.495092,53.9680883],[27.491687,53.9680221],[27.4861289,53.9677294],[27.484357,53.9675514],[27.4799827,53.9673726],[27.4779655,53.9672388],[27.4742087,53.9666895],[27.4702634,53.9659749],[27.4697618,53.9661052],[27.4691771,53.9657089],[27.4648259,53.9642234],[27.4632376,53.9636213],[27.4613613,53.9626945],[27.4596336,53.9617371],[27.4583591,53.9609423],[27.4563089,53.9594189],[27.4554036,53.9588295],[27.4551077,53.9583202],[27.4544976,53.9580306],[27.4494443,53.9542368],[27.4491943,53.9539921],[27.4460868,53.9515812],[27.4445066,53.9513587],[27.4421631,53.951382],[27.4405734,53.9513421],[27.4408174,53.9509446],[27.4415538,53.9505618],[27.4418335,53.9502692],[27.4421515,53.9488868],[27.4419291,53.9484997],[27.4410031,53.9477647],[27.4388353,53.9461906],[27.437531,53.9457681],[27.4355839,53.945265],[27.4346566,53.9451432],[27.4335943,53.9452806],[27.4325531,53.9455658],[27.4332372,53.9446244],[27.4351928,53.9434015],[27.4347594,53.9431262],[27.4373749,53.9412817],[27.4440868,53.9362545],[27.4464349,53.935024],[27.4490919,53.9339986],[27.451422,53.9334702],[27.4583527,53.9320759],[27.4604782,53.9316638],[27.4619791,53.9314793],[27.4661257,53.9310569],[27.4738777,53.9304829],[27.4834266,53.9296183],[27.4864996,53.9293645],[27.4980915,53.9282856],[27.5028551,53.9272749],[27.5060137,53.9258699],[27.5127256,53.9207751],[27.5190022,53.9158586],[27.5202358,53.914962],[27.5210505,53.9136969],[27.5216948,53.9128934],[27.5219045,53.9123785],[27.5230449,53.9105518],[27.5244646,53.9094993],[27.5280708,53.9088756],[27.5302743,53.9085257],[27.5327848,53.9074799],[27.5333534,53.9070817],[27.5335519,53.9065002],[27.5335413,53.9059892],[27.5363716,53.9056682],[27.5411528,53.905088],[27.545458,53.903242],[27.5486186,53.9018179],[27.5495747,53.9012987],[27.5511917,53.9005889],[27.5537218,53.8979188],[27.5663157,53.9042278]]]},"properties":{"slug":"centralny","name":"Центральный","level":"district","citySlug":"minsk","districtSlug":"centralny","osmRelationId":59249}}]}